{
  "type": "FeatureCollection",
  "generator": "overpass-turbo",
  "copyright": "The data included in this document is from www.openstreetmap.org. The data is made available under ODbL.",
  "timestamp": "2026-06-02T07:45:45Z",
  "features": [
    {
      "type": "Feature",
      "properties": {
        "@id": "way/238108018",
        "ALAND": "908750",
        "AREAID": "110510801793",
        "AWATER": "0",
        "COUNTYFP": "079",
        "MTFCC": "K2561",
        "STATEFP": "06",
        "Tiger:MTFCC": "K2561",
        "leisure": "golf_course",
        "name": "Hunter Ranch Golf Course",
        "source": "Tiger2009"
      },
      "geometry": {
        "type": "Polygon",
        "coordinates": [
          [
            [
              -120.6201751,
              35.6521258
            ],
            [
              -120.6211394,
              35.6513582
            ],
            [
              -120.6212515,
              35.6513486
            ],
            [
              -120.621315,
              35.651343
            ],
            [
              -120.6214505,
              35.6512746
            ],
            [
              -120.621581,
              35.6511484
            ],
            [
              -120.6218245,
              35.6509033
            ],
            [
              -120.6219477,
              35.6508077
            ],
            [
              -120.6220291,
              35.6507847
            ],
            [
              -120.622112,
              35.650788
            ],
            [
              -120.622277,
              35.650831
            ],
            [
              -120.622345,
              35.650827
            ],
            [
              -120.622438,
              35.650797
            ],
            [
              -120.6227017,
              35.650718
            ],
            [
              -120.623121,
              35.65054
            ],
            [
              -120.623375,
              35.650427
            ],
            [
              -120.623577,
              35.65031
            ],
            [
              -120.62381,
              35.650155
            ],
            [
              -120.623983,
              35.649978
            ],
            [
              -120.624047,
              35.649937
            ],
            [
              -120.624201,
              35.649813
            ],
            [
              -120.624354,
              35.649763
            ],
            [
              -120.624449,
              35.649723
            ],
            [
              -120.624499,
              35.649694
            ],
            [
              -120.624574,
              35.64968
            ],
            [
              -120.624684,
              35.649686
            ],
            [
              -120.624781,
              35.649671
            ],
            [
              -120.625181,
              35.64947
            ],
            [
              -120.625564,
              35.649282
            ],
            [
              -120.62598,
              35.649078
            ],
            [
              -120.626306,
              35.648906
            ],
            [
              -120.626337,
              35.648873
            ],
            [
              -120.6264004,
              35.6487903
            ],
            [
              -120.6264713,
              35.6486142
            ],
            [
              -120.6265279,
              35.6485281
            ],
            [
              -120.6265689,
              35.648483
            ],
            [
              -120.6266445,
              35.6483831
            ],
            [
              -120.6266911,
              35.6483362
            ],
            [
              -120.6267171,
              35.6482718
            ],
            [
              -120.6267375,
              35.6481915
            ],
            [
              -120.6267945,
              35.6481318
            ],
            [
              -120.6269073,
              35.6480462
            ],
            [
              -120.6270958,
              35.6478721
            ],
            [
              -120.6272132,
              35.6477113
            ],
            [
              -120.6272502,
              35.6476213
            ],
            [
              -120.6271873,
              35.6475243
            ],
            [
              -120.6270854,
              35.6474296
            ],
            [
              -120.6269537,
              35.6473042
            ],
            [
              -120.6266528,
              35.6473486
            ],
            [
              -120.6264632,
              35.6472623
            ],
            [
              -120.626409,
              35.647123
            ],
            [
              -120.626398,
              35.64703
            ],
            [
              -120.626373,
              35.646952
            ],
            [
              -120.626361,
              35.646914
            ],
            [
              -120.6263083,
              35.6468492
            ],
            [
              -120.6262738,
              35.6467814
            ],
            [
              -120.6262624,
              35.6467523
            ],
            [
              -120.6262759,
              35.6467291
            ],
            [
              -120.6263606,
              35.6466916
            ],
            [
              -120.6264737,
              35.6466383
            ],
            [
              -120.6265513,
              35.6465793
            ],
            [
              -120.626591,
              35.6465296
            ],
            [
              -120.6266204,
              35.6464835
            ],
            [
              -120.6266295,
              35.6464531
            ],
            [
              -120.6266417,
              35.6465251
            ],
            [
              -120.6266689,
              35.6465779
            ],
            [
              -120.626706,
              35.6466239
            ],
            [
              -120.626785,
              35.6466341
            ],
            [
              -120.62687,
              35.6466076
            ],
            [
              -120.6269075,
              35.6465222
            ],
            [
              -120.6269017,
              35.646469
            ],
            [
              -120.6268793,
              35.6464034
            ],
            [
              -120.6268474,
              35.6461816
            ],
            [
              -120.6268391,
              35.6459291
            ],
            [
              -120.6269305,
              35.6457513
            ],
            [
              -120.6272436,
              35.6454733
            ],
            [
              -120.6273397,
              35.6453106
            ],
            [
              -120.6272815,
              35.6450877
            ],
            [
              -120.6274462,
              35.6448465
            ],
            [
              -120.6273974,
              35.64482
            ],
            [
              -120.6259969,
              35.6447979
            ],
            [
              -120.6244997,
              35.6448003
            ],
            [
              -120.6242171,
              35.6448085
            ],
            [
              -120.6237869,
              35.644802
            ],
            [
              -120.623534,
              35.644792
            ],
            [
              -120.623464,
              35.644783
            ],
            [
              -120.623418,
              35.644769
            ],
            [
              -120.623354,
              35.644727
            ],
            [
              -120.6231642,
              35.6446081
            ],
            [
              -120.6230886,
              35.6445835
            ],
            [
              -120.6229861,
              35.6445843
            ],
            [
              -120.6228774,
              35.64463
            ],
            [
              -120.622612,
              35.644845
            ],
            [
              -120.622524,
              35.6449215
            ],
            [
              -120.6224269,
              35.6449779
            ],
            [
              -120.6223615,
              35.6449854
            ],
            [
              -120.6222889,
              35.6449878
            ],
            [
              -120.6219256,
              35.644891
            ],
            [
              -120.6216992,
              35.6447934
            ],
            [
              -120.6212598,
              35.6445623
            ],
            [
              -120.6211813,
              35.6445419
            ],
            [
              -120.6210845,
              35.6445328
            ],
            [
              -120.6209223,
              35.6445756
            ],
            [
              -120.6208173,
              35.6446404
            ],
            [
              -120.6206244,
              35.6447419
            ],
            [
              -120.620456,
              35.6447903
            ],
            [
              -120.6200506,
              35.6448071
            ],
            [
              -120.6195694,
              35.6447803
            ],
            [
              -120.6191581,
              35.6448124
            ],
            [
              -120.6159994,
              35.6447897
            ],
            [
              -120.6146397,
              35.6448574
            ],
            [
              -120.6146036,
              35.6513005
            ],
            [
              -120.6182133,
              35.6531194
            ],
            [
              -120.6182988,
              35.6531625
            ],
            [
              -120.6201751,
              35.6521258
            ]
          ]
        ]
      },
      "id": "way/238108018"
    }
  ]
}