<?xml version="1.0" encoding="UTF-8"?>
<osm version="0.6" generator="Overpass API 0.7.62.11 87bfad18">
<note>The data included in this document is from www.openstreetmap.org. The data is made available under ODbL.</note>
<meta osm_base="2026-05-28T22:47:57Z"/>

  <way id="1147439521">
    <nd ref="10676897290"/>
    <nd ref="10676897291"/>
    <nd ref="10676897292"/>
    <tag k="golf" v="hole"/>
    <tag k="par" v="4"/>
    <tag k="ref" v="1"/>
  </way>
  <way id="1147439530">
    <nd ref="10676897550"/>
    <nd ref="10676897551"/>
    <nd ref="10676897552"/>
    <tag k="golf" v="hole"/>
    <tag k="par" v="4"/>
    <tag k="ref" v="2"/>
  </way>
  <way id="1147446843">
    <nd ref="10676956456"/>
    <nd ref="11573438588"/>
    <nd ref="10676956457"/>
    <nd ref="10676956458"/>
    <tag k="golf" v="hole"/>
    <tag k="par" v="4"/>
    <tag k="ref" v="3"/>
  </way>
  <way id="1147446849">
    <nd ref="10676956675"/>
    <nd ref="10676956676"/>
    <nd ref="10676956677"/>
    <tag k="golf" v="hole"/>
    <tag k="par" v="4"/>
    <tag k="ref" v="4"/>
  </way>
  <way id="1147446855">
    <nd ref="10676956876"/>
    <nd ref="10676956877"/>
    <tag k="golf" v="hole"/>
    <tag k="par" v="3"/>
    <tag k="ref" v="5"/>
  </way>
  <way id="1147446861">
    <nd ref="10676957061"/>
    <nd ref="10676957062"/>
    <nd ref="10676957063"/>
    <tag k="golf" v="hole"/>
    <tag k="par" v="4"/>
    <tag k="ref" v="6"/>
  </way>
  <way id="1147446871">
    <nd ref="10676957370"/>
    <nd ref="10676957371"/>
    <nd ref="10676957372"/>
    <nd ref="11573438587"/>
    <nd ref="10676957373"/>
    <tag k="golf" v="hole"/>
    <tag k="par" v="5"/>
    <tag k="ref" v="8"/>
  </way>
  <way id="1147452564">
    <nd ref="10677002466"/>
    <nd ref="10677002467"/>
    <tag k="golf" v="hole"/>
    <tag k="par" v="3"/>
    <tag k="ref" v="9"/>
  </way>
  <way id="1147452570">
    <nd ref="10677002643"/>
    <nd ref="10677002644"/>
    <nd ref="10677002645"/>
    <tag k="golf" v="hole"/>
    <tag k="par" v="4"/>
    <tag k="ref" v="10"/>
  </way>
  <way id="1147452581">
    <nd ref="10677002924"/>
    <nd ref="10677002925"/>
    <nd ref="10677002926"/>
    <tag k="golf" v="hole"/>
    <tag k="par" v="4"/>
    <tag k="ref" v="11"/>
  </way>
  <way id="1147452588">
    <nd ref="10677003106"/>
    <nd ref="10677003107"/>
    <nd ref="10677003108"/>
    <tag k="golf" v="hole"/>
    <tag k="par" v="4"/>
    <tag k="ref" v="12"/>
  </way>
  <way id="1147452593">
    <nd ref="10677003241"/>
    <nd ref="10677003242"/>
    <nd ref="10677003243"/>
    <tag k="golf" v="hole"/>
    <tag k="par" v="4"/>
    <tag k="ref" v="13"/>
  </way>
  <way id="1147457396">
    <nd ref="10677039915"/>
    <nd ref="10677039916"/>
    <nd ref="10677039917"/>
    <tag k="golf" v="hole"/>
    <tag k="par" v="4"/>
    <tag k="ref" v="14"/>
  </way>
  <way id="1147457399">
    <nd ref="10677040053"/>
    <nd ref="10677040054"/>
    <tag k="golf" v="hole"/>
    <tag k="par" v="3"/>
    <tag k="ref" v="15"/>
  </way>
  <way id="1147485940">
    <nd ref="10677304142"/>
    <nd ref="10677304143"/>
    <nd ref="10677304144"/>
    <nd ref="10677304145"/>
    <tag k="golf" v="hole"/>
    <tag k="par" v="5"/>
    <tag k="ref" v="16"/>
  </way>
  <way id="1147485943">
    <nd ref="10677306368"/>
    <nd ref="10677306369"/>
    <nd ref="10677306370"/>
    <tag k="golf" v="hole"/>
    <tag k="par" v="4"/>
    <tag k="ref" v="17"/>
  </way>
  <way id="1147485947">
    <nd ref="10677306492"/>
    <nd ref="10677306493"/>
    <nd ref="10677306494"/>
    <tag k="golf" v="hole"/>
    <tag k="par" v="4"/>
    <tag k="ref" v="18"/>
  </way>
  <way id="1244966234">
    <nd ref="11573438589"/>
    <nd ref="11573438590"/>
    <tag k="golf" v="hole"/>
    <tag k="par" v="3"/>
    <tag k="ref" v="7"/>
  </way>
  <node id="10676956457" lat="36.7765983" lon="-119.7085883"/>
  <node id="10676956458" lat="36.7766145" lon="-119.7096081"/>
  <node id="10676956675" lat="36.7764062" lon="-119.7103291"/>
  <node id="10676956676" lat="36.7759548" lon="-119.7087500"/>
  <node id="10676957062" lat="36.7758744" lon="-119.7101194"/>
  <node id="10676957063" lat="36.7764899" lon="-119.7107629"/>
  <node id="10676957370" lat="36.7777457" lon="-119.7101482"/>
  <node id="10676957371" lat="36.7770611" lon="-119.7083868"/>
  <node id="10677306368" lat="36.7789677" lon="-119.7083182"/>
  <node id="10677306369" lat="36.7790228" lon="-119.7101902"/>
  <node id="10677306370" lat="36.7789467" lon="-119.7108562"/>
  <node id="10677306492" lat="36.7785925" lon="-119.7109333"/>
  <node id="10677306493" lat="36.7786648" lon="-119.7090625"/>
  <node id="11573438589" lat="36.7768196" lon="-119.7099660"/>
  <node id="11573438590" lat="36.7776686" lon="-119.7105105"/>
  <node id="10676897552" lat="36.7754378" lon="-119.7051815"/>
  <node id="10676956877" lat="36.7747806" lon="-119.7077400"/>
  <node id="10676957061" lat="36.7750764" lon="-119.7079722"/>
  <node id="10676897290" lat="36.7779438" lon="-119.7072628"/>
  <node id="10676897291" lat="36.7774012" lon="-119.7051955"/>
  <node id="10676897292" lat="36.7777360" lon="-119.7039450"/>
  <node id="10676897550" lat="36.7776848" lon="-119.7035892"/>
  <node id="10676897551" lat="36.7763857" lon="-119.7043835"/>
  <node id="10676956456" lat="36.7756250" lon="-119.7055999"/>
  <node id="10676956677" lat="36.7757930" lon="-119.7071468"/>
  <node id="10676956876" lat="36.7756484" lon="-119.7067725"/>
  <node id="10676957372" lat="36.7767961" lon="-119.7065546"/>
  <node id="10676957373" lat="36.7759848" lon="-119.7053851"/>
  <node id="10677002466" lat="36.7766789" lon="-119.7051569"/>
  <node id="10677002467" lat="36.7775434" lon="-119.7072882"/>
  <node id="10677002643" lat="36.7780592" lon="-119.7073017"/>
  <node id="10677002644" lat="36.7782665" lon="-119.7049196"/>
  <node id="10677002645" lat="36.7781914" lon="-119.7036376"/>
  <node id="10677002924" lat="36.7776738" lon="-119.7034188"/>
  <node id="10677002925" lat="36.7767823" lon="-119.7034955"/>
  <node id="10677002926" lat="36.7763447" lon="-119.7036455"/>
  <node id="10677003106" lat="36.7758644" lon="-119.7030025"/>
  <node id="10677003107" lat="36.7774383" lon="-119.7028298"/>
  <node id="10677003108" lat="36.7781849" lon="-119.7028421"/>
  <node id="10677003241" lat="36.7785156" lon="-119.7022413"/>
  <node id="10677003242" lat="36.7767146" lon="-119.7022615"/>
  <node id="10677003243" lat="36.7760167" lon="-119.7023925"/>
  <node id="10677039915" lat="36.7758377" lon="-119.7020083"/>
  <node id="10677039916" lat="36.7777046" lon="-119.7015509"/>
  <node id="10677040054" lat="36.7785638" lon="-119.7028772"/>
  <node id="10677304142" lat="36.7785108" lon="-119.7033169"/>
  <node id="10677304143" lat="36.7787477" lon="-119.7049253"/>
  <node id="10677304144" lat="36.7789798" lon="-119.7072320"/>
  <node id="10677304145" lat="36.7790151" lon="-119.7079268"/>
  <node id="10677306494" lat="36.7786097" lon="-119.7078863"/>
  <node id="11573438587" lat="36.7763458" lon="-119.7056004"/>
  <node id="11573438588" lat="36.7763334" lon="-119.7070273"/>
  <node id="10677039917" lat="36.7788141" lon="-119.7013847"/>
  <node id="10677040053" lat="36.7791646" lon="-119.7011474"/>

</osm>
