<?xml version="1.0" encoding="UTF-8"?>
<osm version="0.6" generator="Overpass API 0.7.62.11 87bfad18">
<note>The data included in this document is from www.openstreetmap.org. The data is made available under ODbL.</note>
<meta osm_base="2026-05-29T03:24:54Z"/>

  <way id="1147439513">
    <nd ref="10676892158"/>
    <nd ref="10676892159"/>
    <nd ref="10676892160"/>
    <nd ref="10676892161"/>
    <nd ref="10676892162"/>
    <nd ref="10676892163"/>
    <nd ref="10676892164"/>
    <nd ref="10676892165"/>
    <nd ref="10676892166"/>
    <nd ref="10676892167"/>
    <nd ref="10676892168"/>
    <nd ref="10676892169"/>
    <nd ref="10676892173"/>
    <nd ref="10676892170"/>
    <nd ref="10676892171"/>
    <nd ref="10676892172"/>
    <nd ref="10676892158"/>
    <tag k="golf" v="bunker"/>
  </way>
  <way id="1147439516">
    <nd ref="10676897017"/>
    <nd ref="10676897018"/>
    <nd ref="10676897019"/>
    <nd ref="10676897020"/>
    <nd ref="10676897021"/>
    <nd ref="10676897022"/>
    <nd ref="10676897023"/>
    <nd ref="10676897024"/>
    <nd ref="10676897025"/>
    <nd ref="10676897026"/>
    <nd ref="10676897027"/>
    <nd ref="10676897028"/>
    <nd ref="10676897029"/>
    <nd ref="10676897030"/>
    <nd ref="10676897031"/>
    <nd ref="10676897032"/>
    <nd ref="10676897033"/>
    <nd ref="10676897034"/>
    <nd ref="10676897035"/>
    <nd ref="10676897036"/>
    <nd ref="10676897037"/>
    <nd ref="10676897017"/>
    <tag k="golf" v="bunker"/>
  </way>
  <way id="1147439517">
    <nd ref="10676897038"/>
    <nd ref="10676897039"/>
    <nd ref="10676897040"/>
    <nd ref="10676897041"/>
    <nd ref="10676897058"/>
    <nd ref="10676897042"/>
    <nd ref="10676897043"/>
    <nd ref="10676897044"/>
    <nd ref="10676897045"/>
    <nd ref="10676897046"/>
    <nd ref="10676897057"/>
    <nd ref="10676897047"/>
    <nd ref="10676897048"/>
    <nd ref="10676897049"/>
    <nd ref="10676897050"/>
    <nd ref="10676897051"/>
    <nd ref="10676897056"/>
    <nd ref="10676897052"/>
    <nd ref="10676897053"/>
    <nd ref="10676897054"/>
    <nd ref="10676897055"/>
    <nd ref="10676897038"/>
    <tag k="golf" v="bunker"/>
  </way>
  <way id="1147439523">
    <nd ref="10676897318"/>
    <nd ref="10676897319"/>
    <nd ref="10676897320"/>
    <nd ref="10676897321"/>
    <nd ref="10676897322"/>
    <nd ref="10676897323"/>
    <nd ref="10676897324"/>
    <nd ref="10676897325"/>
    <nd ref="10676897326"/>
    <nd ref="10676897327"/>
    <nd ref="10676897328"/>
    <nd ref="10676897329"/>
    <nd ref="10676897330"/>
    <nd ref="10676897331"/>
    <nd ref="10676897332"/>
    <nd ref="10676897333"/>
    <nd ref="10676897334"/>
    <nd ref="10676897335"/>
    <nd ref="10676897336"/>
    <nd ref="10676897318"/>
    <tag k="golf" v="bunker"/>
  </way>
  <way id="1147439524">
    <nd ref="10676897337"/>
    <nd ref="10676897338"/>
    <nd ref="10676897339"/>
    <nd ref="10676897340"/>
    <nd ref="10676897341"/>
    <nd ref="10676897342"/>
    <nd ref="10676897343"/>
    <nd ref="10676897344"/>
    <nd ref="10676897345"/>
    <nd ref="10676897346"/>
    <nd ref="10676897347"/>
    <nd ref="10676897348"/>
    <nd ref="10676897349"/>
    <nd ref="10676897350"/>
    <nd ref="10676897351"/>
    <nd ref="10676897352"/>
    <nd ref="10676897353"/>
    <nd ref="10676897354"/>
    <nd ref="10676897355"/>
    <nd ref="10676897356"/>
    <nd ref="10676897357"/>
    <nd ref="10676897358"/>
    <nd ref="10676897359"/>
    <nd ref="10676897360"/>
    <nd ref="10676897361"/>
    <nd ref="10676897337"/>
    <tag k="golf" v="bunker"/>
  </way>
  <way id="1147439525">
    <nd ref="10676897362"/>
    <nd ref="10676897363"/>
    <nd ref="10676897364"/>
    <nd ref="10676897365"/>
    <nd ref="10676897366"/>
    <nd ref="10676897367"/>
    <nd ref="10676897368"/>
    <nd ref="10676897369"/>
    <nd ref="10676897370"/>
    <nd ref="10676897371"/>
    <nd ref="10676897372"/>
    <nd ref="10676897373"/>
    <nd ref="10676897374"/>
    <nd ref="10676897375"/>
    <nd ref="10676897376"/>
    <nd ref="10677306543"/>
    <nd ref="10676897377"/>
    <nd ref="10676897378"/>
    <nd ref="10676897379"/>
    <nd ref="10676897380"/>
    <nd ref="10676897381"/>
    <nd ref="10676897382"/>
    <nd ref="10676897383"/>
    <nd ref="10676897384"/>
    <nd ref="10676897385"/>
    <nd ref="10676897362"/>
    <tag k="golf" v="bunker"/>
  </way>
  <way id="1147439526">
    <nd ref="10676897386"/>
    <nd ref="10676897387"/>
    <nd ref="10676897388"/>
    <nd ref="10676897389"/>
    <nd ref="10676897390"/>
    <nd ref="10676897391"/>
    <nd ref="10676897392"/>
    <nd ref="10676897393"/>
    <nd ref="10676897394"/>
    <nd ref="10676897395"/>
    <nd ref="10676897396"/>
    <nd ref="10676897397"/>
    <nd ref="10676897398"/>
    <nd ref="10676897399"/>
    <nd ref="10676897400"/>
    <nd ref="10676897401"/>
    <nd ref="10676897402"/>
    <nd ref="10676897403"/>
    <nd ref="10676897407"/>
    <nd ref="10676897404"/>
    <nd ref="10676897405"/>
    <nd ref="10676897406"/>
    <nd ref="10676897386"/>
    <tag k="golf" v="bunker"/>
  </way>
  <way id="1147439527">
    <nd ref="10676897408"/>
    <nd ref="10676897409"/>
    <nd ref="10676897410"/>
    <nd ref="10676897411"/>
    <nd ref="10676897412"/>
    <nd ref="10676897413"/>
    <nd ref="10676897414"/>
    <nd ref="10676897415"/>
    <nd ref="10676897416"/>
    <nd ref="10676897417"/>
    <nd ref="10676897418"/>
    <nd ref="10676897426"/>
    <nd ref="10676897419"/>
    <nd ref="10676897420"/>
    <nd ref="10676897421"/>
    <nd ref="10676897422"/>
    <nd ref="10676897423"/>
    <nd ref="10676897424"/>
    <nd ref="10676897425"/>
    <nd ref="10676897408"/>
    <tag k="golf" v="bunker"/>
  </way>
  <way id="1147446840">
    <nd ref="10676956315"/>
    <nd ref="10676956316"/>
    <nd ref="10676956333"/>
    <nd ref="10676956317"/>
    <nd ref="10676956332"/>
    <nd ref="10676956318"/>
    <nd ref="10676956319"/>
    <nd ref="10676956320"/>
    <nd ref="10676956321"/>
    <nd ref="10676956322"/>
    <nd ref="10676956323"/>
    <nd ref="10676956324"/>
    <nd ref="10676956325"/>
    <nd ref="10676956326"/>
    <nd ref="10676956327"/>
    <nd ref="10676956328"/>
    <nd ref="10676956329"/>
    <nd ref="10676956334"/>
    <nd ref="10676956330"/>
    <nd ref="10676956331"/>
    <nd ref="10676956315"/>
    <tag k="golf" v="bunker"/>
  </way>
  <way id="1147446845">
    <nd ref="10676956482"/>
    <nd ref="10676956483"/>
    <nd ref="10676956484"/>
    <nd ref="10676956485"/>
    <nd ref="10676956486"/>
    <nd ref="10676956487"/>
    <nd ref="10676956488"/>
    <nd ref="10676956489"/>
    <nd ref="10676956490"/>
    <nd ref="10676956491"/>
    <nd ref="10676956492"/>
    <nd ref="10676956493"/>
    <nd ref="10676956502"/>
    <nd ref="10676956494"/>
    <nd ref="10676956503"/>
    <nd ref="10676956495"/>
    <nd ref="10676956501"/>
    <nd ref="10676956496"/>
    <nd ref="10676956497"/>
    <nd ref="10676956498"/>
    <nd ref="10676956499"/>
    <nd ref="10676956500"/>
    <nd ref="10676956482"/>
    <tag k="golf" v="bunker"/>
  </way>
  <way id="1147446846">
    <nd ref="10676956504"/>
    <nd ref="10676956505"/>
    <nd ref="10676956506"/>
    <nd ref="10676956507"/>
    <nd ref="10676956508"/>
    <nd ref="10676956509"/>
    <nd ref="10676956510"/>
    <nd ref="10676956511"/>
    <nd ref="10676956512"/>
    <nd ref="10676956513"/>
    <nd ref="10676956514"/>
    <nd ref="10676956515"/>
    <nd ref="10676956516"/>
    <nd ref="10676956517"/>
    <nd ref="10676956521"/>
    <nd ref="10676956518"/>
    <nd ref="10676956519"/>
    <nd ref="10676956520"/>
    <nd ref="10676956504"/>
    <tag k="golf" v="bunker"/>
  </way>
  <way id="1147446851">
    <nd ref="10676956698"/>
    <nd ref="10676956699"/>
    <nd ref="10676956700"/>
    <nd ref="10676956701"/>
    <nd ref="10676956702"/>
    <nd ref="10676956703"/>
    <nd ref="10676956704"/>
    <nd ref="10676956705"/>
    <nd ref="10676956706"/>
    <nd ref="10676956707"/>
    <nd ref="10676956708"/>
    <nd ref="10676956709"/>
    <nd ref="10676956710"/>
    <nd ref="10676956711"/>
    <nd ref="10676956712"/>
    <nd ref="10676956713"/>
    <nd ref="10676956714"/>
    <nd ref="10676956715"/>
    <nd ref="10676956716"/>
    <nd ref="10676956717"/>
    <nd ref="10676956718"/>
    <nd ref="10676956719"/>
    <nd ref="10676956698"/>
    <tag k="golf" v="bunker"/>
  </way>
  <way id="1147446852">
    <nd ref="10676956720"/>
    <nd ref="10676956721"/>
    <nd ref="10676956722"/>
    <nd ref="10676956723"/>
    <nd ref="10676956724"/>
    <nd ref="10676956725"/>
    <nd ref="10676956726"/>
    <nd ref="10676956727"/>
    <nd ref="10676956728"/>
    <nd ref="10676956729"/>
    <nd ref="10676956730"/>
    <nd ref="10676956731"/>
    <nd ref="10676956743"/>
    <nd ref="10676956732"/>
    <nd ref="10676956733"/>
    <nd ref="10676956734"/>
    <nd ref="10676956735"/>
    <nd ref="10676956736"/>
    <nd ref="10676956737"/>
    <nd ref="10676956742"/>
    <nd ref="10676956738"/>
    <nd ref="10676956739"/>
    <nd ref="10676956741"/>
    <nd ref="10676956740"/>
    <nd ref="10676956720"/>
    <tag k="golf" v="bunker"/>
  </way>
  <way id="1147446857">
    <nd ref="10676956898"/>
    <nd ref="10676956899"/>
    <nd ref="10676956900"/>
    <nd ref="10676956901"/>
    <nd ref="10676956902"/>
    <nd ref="10676956903"/>
    <nd ref="10676956904"/>
    <nd ref="10676956905"/>
    <nd ref="10676956906"/>
    <nd ref="10676956907"/>
    <nd ref="10676956908"/>
    <nd ref="10676956909"/>
    <nd ref="10676956910"/>
    <nd ref="10676956911"/>
    <nd ref="10676956912"/>
    <nd ref="10676956913"/>
    <nd ref="10676956914"/>
    <nd ref="10676956915"/>
    <nd ref="10676956916"/>
    <nd ref="10676956898"/>
    <tag k="golf" v="bunker"/>
  </way>
  <way id="1147446858">
    <nd ref="10676956917"/>
    <nd ref="10676956918"/>
    <nd ref="10676956919"/>
    <nd ref="10676956920"/>
    <nd ref="10676956921"/>
    <nd ref="10676956922"/>
    <nd ref="10676956923"/>
    <nd ref="10676956924"/>
    <nd ref="10676956925"/>
    <nd ref="10676956926"/>
    <nd ref="10676956927"/>
    <nd ref="10676956928"/>
    <nd ref="10676956929"/>
    <nd ref="10676956930"/>
    <nd ref="10676956931"/>
    <nd ref="10676956932"/>
    <nd ref="10676956933"/>
    <nd ref="10676956934"/>
    <nd ref="10676956935"/>
    <nd ref="10676956917"/>
    <tag k="golf" v="bunker"/>
  </way>
  <way id="1147446863">
    <nd ref="10676957089"/>
    <nd ref="10676957108"/>
    <nd ref="10676957090"/>
    <nd ref="10676957091"/>
    <nd ref="10676957107"/>
    <nd ref="10676957106"/>
    <nd ref="10676957092"/>
    <nd ref="10676957093"/>
    <nd ref="10676957110"/>
    <nd ref="10676957094"/>
    <nd ref="10676957095"/>
    <nd ref="10676957096"/>
    <nd ref="10676957097"/>
    <nd ref="10676957098"/>
    <nd ref="10676957109"/>
    <nd ref="10676957099"/>
    <nd ref="10676957100"/>
    <nd ref="10676957101"/>
    <nd ref="10676957102"/>
    <nd ref="10676957103"/>
    <nd ref="10676957104"/>
    <nd ref="10676957105"/>
    <nd ref="10676957089"/>
    <tag k="golf" v="bunker"/>
  </way>
  <way id="1147452572">
    <nd ref="10677002669"/>
    <nd ref="10677002670"/>
    <nd ref="10677002671"/>
    <nd ref="10677002672"/>
    <nd ref="10677002673"/>
    <nd ref="10677003105"/>
    <nd ref="10677002674"/>
    <nd ref="10677002675"/>
    <nd ref="10677002676"/>
    <nd ref="10677002677"/>
    <nd ref="10677002678"/>
    <nd ref="10677002679"/>
    <nd ref="10677002680"/>
    <nd ref="10677002681"/>
    <nd ref="10677002682"/>
    <nd ref="10677002683"/>
    <nd ref="10677002684"/>
    <nd ref="10677002669"/>
    <tag k="golf" v="bunker"/>
  </way>
  <way id="1147452573">
    <nd ref="10677002685"/>
    <nd ref="10677002686"/>
    <nd ref="10677002687"/>
    <nd ref="10677002688"/>
    <nd ref="10677002689"/>
    <nd ref="10677002690"/>
    <nd ref="10677002691"/>
    <nd ref="10677002692"/>
    <nd ref="10677002693"/>
    <nd ref="10677002694"/>
    <nd ref="10677002695"/>
    <nd ref="10677002696"/>
    <nd ref="10677002697"/>
    <nd ref="10677002698"/>
    <nd ref="10677002699"/>
    <nd ref="10677002700"/>
    <nd ref="10677002685"/>
    <tag k="golf" v="bunker"/>
  </way>
  <way id="1147452574">
    <nd ref="10677002701"/>
    <nd ref="10677002702"/>
    <nd ref="10677002703"/>
    <nd ref="10677002704"/>
    <nd ref="10677002705"/>
    <nd ref="10677002706"/>
    <nd ref="10677002707"/>
    <nd ref="10677002708"/>
    <nd ref="10677002709"/>
    <nd ref="10677002710"/>
    <nd ref="10677002711"/>
    <nd ref="10677002712"/>
    <nd ref="10677002713"/>
    <nd ref="10677002714"/>
    <nd ref="10677002715"/>
    <nd ref="10677002716"/>
    <nd ref="10677002701"/>
    <tag k="golf" v="bunker"/>
  </way>
  <way id="1147452575">
    <nd ref="10677002717"/>
    <nd ref="10677002718"/>
    <nd ref="10677002719"/>
    <nd ref="10677002720"/>
    <nd ref="10677002721"/>
    <nd ref="10677002722"/>
    <nd ref="10677002723"/>
    <nd ref="10677002724"/>
    <nd ref="10677002725"/>
    <nd ref="10677002726"/>
    <nd ref="10677002727"/>
    <nd ref="10677002728"/>
    <nd ref="10677002729"/>
    <nd ref="10677002730"/>
    <nd ref="10677002731"/>
    <nd ref="10677002732"/>
    <nd ref="10677002733"/>
    <nd ref="10677002734"/>
    <nd ref="10677002735"/>
    <nd ref="10677002736"/>
    <nd ref="10677002717"/>
    <tag k="golf" v="bunker"/>
  </way>
  <way id="1147452577">
    <nd ref="10677002759"/>
    <nd ref="10677002760"/>
    <nd ref="10677002779"/>
    <nd ref="10677002761"/>
    <nd ref="10677002762"/>
    <nd ref="10677002763"/>
    <nd ref="10677002764"/>
    <nd ref="10677002765"/>
    <nd ref="10677002766"/>
    <nd ref="10677002767"/>
    <nd ref="10677002768"/>
    <nd ref="10677002769"/>
    <nd ref="10677002770"/>
    <nd ref="10677002771"/>
    <nd ref="10677002772"/>
    <nd ref="10677002773"/>
    <nd ref="10677002774"/>
    <nd ref="10677002775"/>
    <nd ref="10677002776"/>
    <nd ref="10677002777"/>
    <nd ref="10677002778"/>
    <nd ref="10677002759"/>
    <tag k="golf" v="bunker"/>
  </way>
  <way id="1147452578">
    <nd ref="10677002780"/>
    <nd ref="10677002781"/>
    <nd ref="10677002782"/>
    <nd ref="10677002783"/>
    <nd ref="10677002784"/>
    <nd ref="10677002785"/>
    <nd ref="10677002786"/>
    <nd ref="10677002787"/>
    <nd ref="10677002788"/>
    <nd ref="10677002789"/>
    <nd ref="10677002798"/>
    <nd ref="10677002790"/>
    <nd ref="10677002791"/>
    <nd ref="10677002792"/>
    <nd ref="10677002793"/>
    <nd ref="10677002794"/>
    <nd ref="10677002795"/>
    <nd ref="10677002796"/>
    <nd ref="10677002797"/>
    <nd ref="10677002780"/>
    <tag k="golf" v="bunker"/>
  </way>
  <way id="1147452586">
    <nd ref="10677002985"/>
    <nd ref="10677002986"/>
    <nd ref="10677002987"/>
    <nd ref="10677002988"/>
    <nd ref="10677002989"/>
    <nd ref="10677002990"/>
    <nd ref="10677002991"/>
    <nd ref="10677002992"/>
    <nd ref="10677002993"/>
    <nd ref="10677002994"/>
    <nd ref="10677002995"/>
    <nd ref="10677002996"/>
    <nd ref="10677002997"/>
    <nd ref="10677002998"/>
    <nd ref="10677002999"/>
    <nd ref="10677003000"/>
    <nd ref="10677003001"/>
    <nd ref="10677003002"/>
    <nd ref="10677003003"/>
    <nd ref="10677002985"/>
    <tag k="golf" v="bunker"/>
  </way>
  <way id="1147457401">
    <nd ref="10677040073"/>
    <nd ref="10677040074"/>
    <nd ref="10677040096"/>
    <nd ref="10677040075"/>
    <nd ref="10677040076"/>
    <nd ref="10677040077"/>
    <nd ref="10677040078"/>
    <nd ref="10677040079"/>
    <nd ref="10677040080"/>
    <nd ref="10677040081"/>
    <nd ref="10677040082"/>
    <nd ref="10677040083"/>
    <nd ref="10677040084"/>
    <nd ref="10677040085"/>
    <nd ref="10677040086"/>
    <nd ref="10677040087"/>
    <nd ref="10677040088"/>
    <nd ref="10677040089"/>
    <nd ref="10677040090"/>
    <nd ref="10677040091"/>
    <nd ref="10677040092"/>
    <nd ref="10677040093"/>
    <nd ref="10677040094"/>
    <nd ref="10677040095"/>
    <nd ref="10677040073"/>
    <tag k="golf" v="bunker"/>
  </way>
  <way id="1147457402">
    <nd ref="10677040097"/>
    <nd ref="10677040098"/>
    <nd ref="10677040123"/>
    <nd ref="10677040099"/>
    <nd ref="10677040100"/>
    <nd ref="10677040101"/>
    <nd ref="10677040102"/>
    <nd ref="10677040103"/>
    <nd ref="10677040104"/>
    <nd ref="10677040105"/>
    <nd ref="10677040106"/>
    <nd ref="10677040107"/>
    <nd ref="10677040108"/>
    <nd ref="10677040109"/>
    <nd ref="10677040110"/>
    <nd ref="10677040122"/>
    <nd ref="10677040111"/>
    <nd ref="10677040112"/>
    <nd ref="10677040121"/>
    <nd ref="10677040113"/>
    <nd ref="10677040114"/>
    <nd ref="10677040115"/>
    <nd ref="10677040116"/>
    <nd ref="10677040120"/>
    <nd ref="10677040117"/>
    <nd ref="10677040118"/>
    <nd ref="10677040119"/>
    <nd ref="10677040097"/>
    <tag k="golf" v="bunker"/>
  </way>
  <way id="1147457403">
    <nd ref="10677040124"/>
    <nd ref="10677040125"/>
    <nd ref="10677040126"/>
    <nd ref="10677040127"/>
    <nd ref="10677040128"/>
    <nd ref="10677040129"/>
    <nd ref="10677040130"/>
    <nd ref="10677040131"/>
    <nd ref="10677040132"/>
    <nd ref="10677040133"/>
    <nd ref="10677040134"/>
    <nd ref="10677040135"/>
    <nd ref="10677040136"/>
    <nd ref="10677040137"/>
    <nd ref="10677040138"/>
    <nd ref="10677040139"/>
    <nd ref="10677040140"/>
    <nd ref="10677040141"/>
    <nd ref="10677040142"/>
    <nd ref="10677040143"/>
    <nd ref="10677040144"/>
    <nd ref="10677040145"/>
    <nd ref="10677040146"/>
    <nd ref="10677040147"/>
    <nd ref="10677040148"/>
    <nd ref="10677040149"/>
    <nd ref="10677040150"/>
    <nd ref="10677040124"/>
    <tag k="golf" v="bunker"/>
  </way>
  <way id="1147457404">
    <nd ref="10677040151"/>
    <nd ref="10677040152"/>
    <nd ref="10677040153"/>
    <nd ref="10677040154"/>
    <nd ref="10677040169"/>
    <nd ref="10677040155"/>
    <nd ref="10677040156"/>
    <nd ref="10677040157"/>
    <nd ref="10677040158"/>
    <nd ref="10677040170"/>
    <nd ref="10677040159"/>
    <nd ref="10677040160"/>
    <nd ref="10677040161"/>
    <nd ref="10677040162"/>
    <nd ref="10677040171"/>
    <nd ref="10677040163"/>
    <nd ref="10677040164"/>
    <nd ref="10677040165"/>
    <nd ref="10677040166"/>
    <nd ref="10677040167"/>
    <nd ref="10677040168"/>
    <nd ref="10677040151"/>
    <tag k="golf" v="bunker"/>
  </way>
  <way id="1147457405">
    <nd ref="10677040172"/>
    <nd ref="10677040173"/>
    <nd ref="10677040174"/>
    <nd ref="10677040192"/>
    <nd ref="10677040175"/>
    <nd ref="10677040176"/>
    <nd ref="10677040177"/>
    <nd ref="10677040178"/>
    <nd ref="10677040179"/>
    <nd ref="10677040180"/>
    <nd ref="10677040181"/>
    <nd ref="10677040182"/>
    <nd ref="10677040183"/>
    <nd ref="10677040194"/>
    <nd ref="10677040184"/>
    <nd ref="10677040185"/>
    <nd ref="10677040186"/>
    <nd ref="10677040187"/>
    <nd ref="10677040188"/>
    <nd ref="10677040193"/>
    <nd ref="10677040189"/>
    <nd ref="10677040190"/>
    <nd ref="10677040191"/>
    <nd ref="10677040172"/>
    <tag k="golf" v="bunker"/>
  </way>
  <way id="1147652584">
    <nd ref="10678605803"/>
    <nd ref="10678605804"/>
    <nd ref="10678622405"/>
    <nd ref="10678622406"/>
    <nd ref="10678622407"/>
    <nd ref="10678622408"/>
    <nd ref="10678622409"/>
    <nd ref="10678622410"/>
    <nd ref="10678622411"/>
    <nd ref="10678622412"/>
    <nd ref="10678622413"/>
    <nd ref="10678622414"/>
    <nd ref="10678622415"/>
    <nd ref="10678622416"/>
    <nd ref="10678622417"/>
    <nd ref="10678622418"/>
    <nd ref="10678622419"/>
    <nd ref="10678622420"/>
    <nd ref="10678622421"/>
    <nd ref="10678622422"/>
    <nd ref="10678622423"/>
    <nd ref="10678622424"/>
    <nd ref="10678605803"/>
    <tag k="golf" v="bunker"/>
  </way>
  <way id="1147652585">
    <nd ref="10678622425"/>
    <nd ref="10678622426"/>
    <nd ref="10678622427"/>
    <nd ref="10678622428"/>
    <nd ref="10678622429"/>
    <nd ref="10678622430"/>
    <nd ref="10678622431"/>
    <nd ref="10678622432"/>
    <nd ref="10678622433"/>
    <nd ref="10678622434"/>
    <nd ref="10678622435"/>
    <nd ref="10678622436"/>
    <nd ref="10678622437"/>
    <nd ref="10678622438"/>
    <nd ref="10678622439"/>
    <nd ref="10678622440"/>
    <nd ref="10678622441"/>
    <nd ref="10678622442"/>
    <nd ref="10678622443"/>
    <nd ref="10678622444"/>
    <nd ref="10678622445"/>
    <nd ref="10678622425"/>
    <tag k="golf" v="bunker"/>
  </way>
  <way id="1346670010">
    <nd ref="12456267273"/>
    <nd ref="12456267272"/>
    <nd ref="12456267271"/>
    <nd ref="12456267270"/>
    <nd ref="12456267269"/>
    <nd ref="12456267268"/>
    <nd ref="12456267267"/>
    <nd ref="12456267266"/>
    <nd ref="12456267265"/>
    <nd ref="12456267264"/>
    <nd ref="12456267263"/>
    <nd ref="12456267262"/>
    <nd ref="12456267261"/>
    <nd ref="12456267260"/>
    <nd ref="12456267259"/>
    <nd ref="12456267258"/>
    <nd ref="12456267257"/>
    <nd ref="12456267256"/>
    <nd ref="12456267255"/>
    <nd ref="12456267254"/>
    <nd ref="12456267253"/>
    <nd ref="12456267252"/>
    <nd ref="12456267251"/>
    <nd ref="12456267250"/>
    <nd ref="12456267249"/>
    <nd ref="12456267273"/>
    <tag k="golf" v="bunker"/>
    <tag k="natural" v="sand"/>
  </way>
  <node id="10676897038" lat="36.7776055" lon="-119.7106446"/>
  <node id="10676897039" lat="36.7776239" lon="-119.7106446"/>
  <node id="10676897040" lat="36.7776370" lon="-119.7106396"/>
  <node id="10676897041" lat="36.7776447" lon="-119.7106324"/>
  <node id="10676897042" lat="36.7776471" lon="-119.7106195"/>
  <node id="10676897043" lat="36.7776454" lon="-119.7106093"/>
  <node id="10676897044" lat="36.7776405" lon="-119.7105979"/>
  <node id="10676897045" lat="36.7776277" lon="-119.7105836"/>
  <node id="10676897046" lat="36.7776057" lon="-119.7105678"/>
  <node id="10676897047" lat="36.7775739" lon="-119.7105556"/>
  <node id="10676897048" lat="36.7775568" lon="-119.7105568"/>
  <node id="10676897049" lat="36.7775454" lon="-119.7105605"/>
  <node id="10676897050" lat="36.7775388" lon="-119.7105693"/>
  <node id="10676897051" lat="36.7775362" lon="-119.7105851"/>
  <node id="10676897052" lat="36.7775423" lon="-119.7106081"/>
  <node id="10676897053" lat="36.7775524" lon="-119.7106172"/>
  <node id="10676897054" lat="36.7775709" lon="-119.7106283"/>
  <node id="10676897055" lat="36.7775921" lon="-119.7106391"/>
  <node id="10676897056" lat="36.7775373" lon="-119.7105982"/>
  <node id="10676897057" lat="36.7775881" lon="-119.7105598"/>
  <node id="10676897058" lat="36.7776466" lon="-119.7106259"/>
  <node id="10676956315" lat="36.7764559" lon="-119.7096320"/>
  <node id="10676956316" lat="36.7764507" lon="-119.7096166"/>
  <node id="10676956317" lat="36.7764521" lon="-119.7095859"/>
  <node id="10676956318" lat="36.7764509" lon="-119.7095545"/>
  <node id="10676956319" lat="36.7764535" lon="-119.7095342"/>
  <node id="10676956320" lat="36.7764632" lon="-119.7095225"/>
  <node id="10676956321" lat="36.7764748" lon="-119.7095176"/>
  <node id="10676956322" lat="36.7764929" lon="-119.7095187"/>
  <node id="10676956323" lat="36.7765041" lon="-119.7095301"/>
  <node id="10676956324" lat="36.7765133" lon="-119.7095484"/>
  <node id="10676956325" lat="36.7765157" lon="-119.7095720"/>
  <node id="10676956326" lat="36.7765129" lon="-119.7096061"/>
  <node id="10676956327" lat="36.7765066" lon="-119.7096297"/>
  <node id="10676956328" lat="36.7764999" lon="-119.7096396"/>
  <node id="10676956329" lat="36.7764889" lon="-119.7096457"/>
  <node id="10676956330" lat="36.7764746" lon="-119.7096460"/>
  <node id="10676956331" lat="36.7764626" lon="-119.7096414"/>
  <node id="10676956332" lat="36.7764517" lon="-119.7095696"/>
  <node id="10676956333" lat="36.7764514" lon="-119.7096007"/>
  <node id="10676956334" lat="36.7764815" lon="-119.7096468"/>
  <node id="10676956898" lat="36.7764095" lon="-119.7109281"/>
  <node id="10676956899" lat="36.7764236" lon="-119.7109306"/>
  <node id="10676956900" lat="36.7764514" lon="-119.7109292"/>
  <node id="10676956901" lat="36.7764692" lon="-119.7109239"/>
  <node id="10676956902" lat="36.7764769" lon="-119.7109155"/>
  <node id="10676956903" lat="36.7764818" lon="-119.7109044"/>
  <node id="10676956904" lat="36.7764830" lon="-119.7108900"/>
  <node id="10676956905" lat="36.7764804" lon="-119.7108793"/>
  <node id="10676956906" lat="36.7764748" lon="-119.7108741"/>
  <node id="10676956907" lat="36.7764634" lon="-119.7108729"/>
  <node id="10676956908" lat="36.7764332" lon="-119.7108714"/>
  <node id="10676956909" lat="36.7764236" lon="-119.7108696"/>
  <node id="10676956910" lat="36.7764098" lon="-119.7108676"/>
  <node id="10676956911" lat="36.7764005" lon="-119.7108681"/>
  <node id="10676956912" lat="36.7763940" lon="-119.7108702"/>
  <node id="10676956913" lat="36.7763878" lon="-119.7108793"/>
  <node id="10676956914" lat="36.7763848" lon="-119.7108919"/>
  <node id="10676956915" lat="36.7763863" lon="-119.7109068"/>
  <node id="10676956916" lat="36.7763976" lon="-119.7109225"/>
  <node id="10676956917" lat="36.7765455" lon="-119.7107020"/>
  <node id="10676956918" lat="36.7765532" lon="-119.7107050"/>
  <node id="10676956919" lat="36.7765644" lon="-119.7107030"/>
  <node id="10676956920" lat="36.7765752" lon="-119.7106949"/>
  <node id="10676956921" lat="36.7765803" lon="-119.7106839"/>
  <node id="10676956922" lat="36.7765796" lon="-119.7106657"/>
  <node id="10676956923" lat="36.7765715" lon="-119.7106486"/>
  <node id="10676956924" lat="36.7765526" lon="-119.7106336"/>
  <node id="10676956925" lat="36.7765131" lon="-119.7106164"/>
  <node id="10676956926" lat="36.7764927" lon="-119.7106064"/>
  <node id="10676956927" lat="36.7764842" lon="-119.7106062"/>
  <node id="10676956928" lat="36.7764754" lon="-119.7106125"/>
  <node id="10676956929" lat="36.7764691" lon="-119.7106237"/>
  <node id="10676956930" lat="36.7764659" lon="-119.7106372"/>
  <node id="10676956931" lat="36.7764671" lon="-119.7106499"/>
  <node id="10676956932" lat="36.7764730" lon="-119.7106580"/>
  <node id="10676956933" lat="36.7764927" lon="-119.7106702"/>
  <node id="10676956934" lat="36.7765172" lon="-119.7106817"/>
  <node id="10676956935" lat="36.7765330" lon="-119.7106918"/>
  <node id="10676957089" lat="36.7777110" lon="-119.7104377"/>
  <node id="10676957090" lat="36.7777287" lon="-119.7104387"/>
  <node id="10676957091" lat="36.7777380" lon="-119.7104356"/>
  <node id="10676957092" lat="36.7777453" lon="-119.7104175"/>
  <node id="10676957093" lat="36.7777432" lon="-119.7104034"/>
  <node id="10676957094" lat="36.7777175" lon="-119.7103528"/>
  <node id="10676957095" lat="36.7776948" lon="-119.7103285"/>
  <node id="10676957096" lat="36.7776792" lon="-119.7103203"/>
  <node id="10676957097" lat="36.7776613" lon="-119.7103215"/>
  <node id="10676957098" lat="36.7776485" lon="-119.7103272"/>
  <node id="10676957099" lat="36.7776398" lon="-119.7103396"/>
  <node id="10676957100" lat="36.7776379" lon="-119.7103616"/>
  <node id="10676957101" lat="36.7776428" lon="-119.7103780"/>
  <node id="10676957102" lat="36.7776532" lon="-119.7103899"/>
  <node id="10676957103" lat="36.7776692" lon="-119.7104007"/>
  <node id="10676957104" lat="36.7776861" lon="-119.7104139"/>
  <node id="10676957105" lat="36.7776997" lon="-119.7104304"/>
  <node id="10676957106" lat="36.7777451" lon="-119.7104244"/>
  <node id="10676957107" lat="36.7777419" lon="-119.7104322"/>
  <node id="10676957108" lat="36.7777196" lon="-119.7104397"/>
  <node id="10676957109" lat="36.7776426" lon="-119.7103323"/>
  <node id="10676957110" lat="36.7777325" lon="-119.7103781"/>
  <node id="10677040124" lat="36.7787235" lon="-119.7080583"/>
  <node id="10677040148" lat="36.7786964" lon="-119.7080583"/>
  <node id="10677040149" lat="36.7787086" lon="-119.7080615"/>
  <node id="10677040150" lat="36.7787160" lon="-119.7080609"/>
  <node id="10677040151" lat="36.7790460" lon="-119.7109007"/>
  <node id="10677040152" lat="36.7790563" lon="-119.7109023"/>
  <node id="10677040153" lat="36.7790667" lon="-119.7108981"/>
  <node id="10677040154" lat="36.7790734" lon="-119.7108879"/>
  <node id="10677040155" lat="36.7790775" lon="-119.7108613"/>
  <node id="10677040156" lat="36.7790763" lon="-119.7108297"/>
  <node id="10677040157" lat="36.7790775" lon="-119.7107961"/>
  <node id="10677040158" lat="36.7790750" lon="-119.7107751"/>
  <node id="10677040159" lat="36.7790603" lon="-119.7107569"/>
  <node id="10677040160" lat="36.7790499" lon="-119.7107547"/>
  <node id="10677040161" lat="36.7790414" lon="-119.7107574"/>
  <node id="10677040162" lat="36.7790353" lon="-119.7107689"/>
  <node id="10677040163" lat="36.7790350" lon="-119.7107945"/>
  <node id="10677040164" lat="36.7790382" lon="-119.7108125"/>
  <node id="10677040165" lat="36.7790392" lon="-119.7108290"/>
  <node id="10677040166" lat="36.7790396" lon="-119.7108662"/>
  <node id="10677040167" lat="36.7790400" lon="-119.7108903"/>
  <node id="10677040168" lat="36.7790417" lon="-119.7108971"/>
  <node id="10677040169" lat="36.7790776" lon="-119.7108760"/>
  <node id="10677040170" lat="36.7790691" lon="-119.7107653"/>
  <node id="10677040171" lat="36.7790344" lon="-119.7107792"/>
  <node id="10677040172" lat="36.7787853" lon="-119.7108641"/>
  <node id="10677040173" lat="36.7787941" lon="-119.7108671"/>
  <node id="10677040174" lat="36.7788016" lon="-119.7108665"/>
  <node id="10677040175" lat="36.7788188" lon="-119.7108522"/>
  <node id="10677040176" lat="36.7788335" lon="-119.7108199"/>
  <node id="10677040177" lat="36.7788401" lon="-119.7107971"/>
  <node id="10677040178" lat="36.7788414" lon="-119.7107820"/>
  <node id="10677040179" lat="36.7788385" lon="-119.7107620"/>
  <node id="10677040180" lat="36.7788331" lon="-119.7107508"/>
  <node id="10677040181" lat="36.7788252" lon="-119.7107432"/>
  <node id="10677040182" lat="36.7788162" lon="-119.7107409"/>
  <node id="10677040183" lat="36.7788063" lon="-119.7107427"/>
  <node id="10677040184" lat="36.7787978" lon="-119.7107546"/>
  <node id="10677040185" lat="36.7787918" lon="-119.7107759"/>
  <node id="10677040186" lat="36.7787855" lon="-119.7107961"/>
  <node id="10677040187" lat="36.7787753" lon="-119.7108147"/>
  <node id="10677040188" lat="36.7787708" lon="-119.7108239"/>
  <node id="10677040189" lat="36.7787692" lon="-119.7108373"/>
  <node id="10677040190" lat="36.7787720" lon="-119.7108509"/>
  <node id="10677040191" lat="36.7787789" lon="-119.7108594"/>
  <node id="10677040192" lat="36.7788105" lon="-119.7108610"/>
  <node id="10677040193" lat="36.7787692" lon="-119.7108303"/>
  <node id="10677040194" lat="36.7788014" lon="-119.7107482"/>
  <node id="10676897386" lat="36.7755062" lon="-119.7053024"/>
  <node id="10676897395" lat="36.7755203" lon="-119.7051728"/>
  <node id="10676897396" lat="36.7755079" lon="-119.7051775"/>
  <node id="10676897397" lat="36.7754960" lon="-119.7051863"/>
  <node id="10676897398" lat="36.7754878" lon="-119.7051950"/>
  <node id="10676897399" lat="36.7754815" lon="-119.7052079"/>
  <node id="10676897400" lat="36.7754787" lon="-119.7052230"/>
  <node id="10676897401" lat="36.7754749" lon="-119.7052388"/>
  <node id="10676897402" lat="36.7754695" lon="-119.7052543"/>
  <node id="10676897403" lat="36.7754649" lon="-119.7052656"/>
  <node id="10676897404" lat="36.7754658" lon="-119.7052858"/>
  <node id="10676897405" lat="36.7754733" lon="-119.7052975"/>
  <node id="10676897406" lat="36.7754922" lon="-119.7053027"/>
  <node id="10676897407" lat="36.7754638" lon="-119.7052759"/>
  <node id="10676897408" lat="36.7752559" lon="-119.7052114"/>
  <node id="10676897409" lat="36.7752686" lon="-119.7052052"/>
  <node id="10676897410" lat="36.7752768" lon="-119.7051926"/>
  <node id="10676897411" lat="36.7752809" lon="-119.7051802"/>
  <node id="10676897412" lat="36.7752816" lon="-119.7051616"/>
  <node id="10676897413" lat="36.7752858" lon="-119.7051382"/>
  <node id="10676897414" lat="36.7752911" lon="-119.7051203"/>
  <node id="10676897415" lat="36.7752931" lon="-119.7051030"/>
  <node id="10676897416" lat="36.7752892" lon="-119.7050922"/>
  <node id="10676897417" lat="36.7752800" lon="-119.7050849"/>
  <node id="10676897418" lat="36.7752717" lon="-119.7050827"/>
  <node id="10676897419" lat="36.7752550" lon="-119.7050878"/>
  <node id="10676897420" lat="36.7752430" lon="-119.7051106"/>
  <node id="10676897421" lat="36.7752350" lon="-119.7051367"/>
  <node id="10676897422" lat="36.7752279" lon="-119.7051696"/>
  <node id="10676897423" lat="36.7752275" lon="-119.7051897"/>
  <node id="10676897424" lat="36.7752350" lon="-119.7052041"/>
  <node id="10676897425" lat="36.7752461" lon="-119.7052116"/>
  <node id="10676897426" lat="36.7752629" lon="-119.7050827"/>
  <node id="10676956698" lat="36.7748834" lon="-119.7078485"/>
  <node id="10676956699" lat="36.7748958" lon="-119.7078465"/>
  <node id="10676956700" lat="36.7749040" lon="-119.7078375"/>
  <node id="10676956701" lat="36.7749104" lon="-119.7078237"/>
  <node id="10676956702" lat="36.7749143" lon="-119.7078043"/>
  <node id="10676956703" lat="36.7749159" lon="-119.7077755"/>
  <node id="10676956704" lat="36.7749134" lon="-119.7077438"/>
  <node id="10676956705" lat="36.7749084" lon="-119.7077230"/>
  <node id="10676956706" lat="36.7749014" lon="-119.7077067"/>
  <node id="10676956707" lat="36.7748943" lon="-119.7076946"/>
  <node id="10676956708" lat="36.7748896" lon="-119.7076911"/>
  <node id="10676956709" lat="36.7748830" lon="-119.7076905"/>
  <node id="10676956710" lat="36.7748755" lon="-119.7076921"/>
  <node id="10676956711" lat="36.7748664" lon="-119.7076982"/>
  <node id="10676956712" lat="36.7748599" lon="-119.7077072"/>
  <node id="10676956713" lat="36.7748545" lon="-119.7077248"/>
  <node id="10676956714" lat="36.7748539" lon="-119.7077500"/>
  <node id="10676956715" lat="36.7748567" lon="-119.7077811"/>
  <node id="10676956716" lat="36.7748572" lon="-119.7078122"/>
  <node id="10676956717" lat="36.7748591" lon="-119.7078271"/>
  <node id="10676956718" lat="36.7748650" lon="-119.7078396"/>
  <node id="10676956719" lat="36.7748733" lon="-119.7078452"/>
  <node id="10676956720" lat="36.7746436" lon="-119.7078184"/>
  <node id="10676956721" lat="36.7746491" lon="-119.7078208"/>
  <node id="10676956722" lat="36.7746579" lon="-119.7078221"/>
  <node id="10676956723" lat="36.7746660" lon="-119.7078203"/>
  <node id="10676956724" lat="36.7746737" lon="-119.7078107"/>
  <node id="10676956725" lat="36.7746767" lon="-119.7077975"/>
  <node id="10676956726" lat="36.7746789" lon="-119.7077782"/>
  <node id="10676956727" lat="36.7746840" lon="-119.7077542"/>
  <node id="10676956728" lat="36.7746879" lon="-119.7077422"/>
  <node id="10676956729" lat="36.7746879" lon="-119.7077241"/>
  <node id="10676956730" lat="36.7746839" lon="-119.7077086"/>
  <node id="10676956731" lat="36.7746784" lon="-119.7076999"/>
  <node id="10676956732" lat="36.7746658" lon="-119.7076964"/>
  <node id="10676956733" lat="36.7746593" lon="-119.7076993"/>
  <node id="10676956734" lat="36.7746350" lon="-119.7077149"/>
  <node id="10676956735" lat="36.7746247" lon="-119.7077228"/>
  <node id="10676956736" lat="36.7746191" lon="-119.7077289"/>
  <node id="10676956737" lat="36.7746142" lon="-119.7077444"/>
  <node id="10676956738" lat="36.7746137" lon="-119.7077654"/>
  <node id="10676956739" lat="36.7746195" lon="-119.7077800"/>
  <node id="10676956740" lat="36.7746338" lon="-119.7078042"/>
  <node id="10676956741" lat="36.7746269" lon="-119.7077918"/>
  <node id="10676956742" lat="36.7746130" lon="-119.7077549"/>
  <node id="10676956743" lat="36.7746726" lon="-119.7076965"/>
  <node id="10676892158" lat="36.7783371" lon="-119.7071659"/>
  <node id="10676892159" lat="36.7783518" lon="-119.7071674"/>
  <node id="10676892160" lat="36.7783649" lon="-119.7071644"/>
  <node id="10676892161" lat="36.7783741" lon="-119.7071573"/>
  <node id="10676892162" lat="36.7783775" lon="-119.7071475"/>
  <node id="10676892163" lat="36.7783760" lon="-119.7071303"/>
  <node id="10676892164" lat="36.7783696" lon="-119.7071158"/>
  <node id="10676892165" lat="36.7783594" lon="-119.7071063"/>
  <node id="10676892166" lat="36.7783430" lon="-119.7071028"/>
  <node id="10676892167" lat="36.7783293" lon="-119.7071028"/>
  <node id="10676892168" lat="36.7783181" lon="-119.7071090"/>
  <node id="10676892169" lat="36.7783115" lon="-119.7071179"/>
  <node id="10676892170" lat="36.7783117" lon="-119.7071475"/>
  <node id="10676892171" lat="36.7783181" lon="-119.7071567"/>
  <node id="10676892172" lat="36.7783272" lon="-119.7071620"/>
  <node id="10676892173" lat="36.7783098" lon="-119.7071330"/>
  <node id="10676897017" lat="36.7776459" lon="-119.7072391"/>
  <node id="10676897018" lat="36.7776533" lon="-119.7072398"/>
  <node id="10676897019" lat="36.7776608" lon="-119.7072345"/>
  <node id="10676897020" lat="36.7776672" lon="-119.7072214"/>
  <node id="10676897021" lat="36.7776693" lon="-119.7072026"/>
  <node id="10676897022" lat="36.7776659" lon="-119.7071898"/>
  <node id="10676897023" lat="36.7776555" lon="-119.7071646"/>
  <node id="10676897024" lat="36.7776508" lon="-119.7071491"/>
  <node id="10676897025" lat="36.7776486" lon="-119.7071345"/>
  <node id="10676897026" lat="36.7776441" lon="-119.7071184"/>
  <node id="10676897027" lat="36.7776356" lon="-119.7071091"/>
  <node id="10676897028" lat="36.7776246" lon="-119.7071022"/>
  <node id="10676897029" lat="36.7776115" lon="-119.7070978"/>
  <node id="10676897030" lat="36.7776034" lon="-119.7070971"/>
  <node id="10676897031" lat="36.7775958" lon="-119.7071002"/>
  <node id="10676897032" lat="36.7775896" lon="-119.7071051"/>
  <node id="10676897033" lat="36.7775874" lon="-119.7071155"/>
  <node id="10676897034" lat="36.7775878" lon="-119.7071316"/>
  <node id="10676897035" lat="36.7775972" lon="-119.7071608"/>
  <node id="10676897036" lat="36.7776230" lon="-119.7072141"/>
  <node id="10676897037" lat="36.7776363" lon="-119.7072341"/>
  <node id="10676897318" lat="36.7781038" lon="-119.7036942"/>
  <node id="10676897319" lat="36.7781180" lon="-119.7036895"/>
  <node id="10676897320" lat="36.7781268" lon="-119.7036801"/>
  <node id="10676897321" lat="36.7781338" lon="-119.7036630"/>
  <node id="10676897322" lat="36.7781346" lon="-119.7036459"/>
  <node id="10676897323" lat="36.7781320" lon="-119.7036389"/>
  <node id="10676897324" lat="36.7781244" lon="-119.7036268"/>
  <node id="10676897325" lat="36.7781161" lon="-119.7036130"/>
  <node id="10676897326" lat="36.7781102" lon="-119.7035963"/>
  <node id="10676897327" lat="36.7781048" lon="-119.7035809"/>
  <node id="10676897328" lat="36.7780973" lon="-119.7035698"/>
  <node id="10676897329" lat="36.7780855" lon="-119.7035678"/>
  <node id="10676897330" lat="36.7780726" lon="-119.7035732"/>
  <node id="10676897331" lat="36.7780654" lon="-119.7035825"/>
  <node id="10676897332" lat="36.7780613" lon="-119.7035946"/>
  <node id="10676897333" lat="36.7780616" lon="-119.7036127"/>
  <node id="10676897334" lat="36.7780702" lon="-119.7036499"/>
  <node id="10676897335" lat="36.7780833" lon="-119.7036821"/>
  <node id="10676897336" lat="36.7780911" lon="-119.7036922"/>
  <node id="10676897337" lat="36.7783028" lon="-119.7037473"/>
  <node id="10676897338" lat="36.7783128" lon="-119.7037451"/>
  <node id="10676897339" lat="36.7783216" lon="-119.7037392"/>
  <node id="10676897340" lat="36.7783267" lon="-119.7037306"/>
  <node id="10676897341" lat="36.7783303" lon="-119.7037174"/>
  <node id="10676897342" lat="36.7783319" lon="-119.7037042"/>
  <node id="10676897343" lat="36.7783295" lon="-119.7036927"/>
  <node id="10676897344" lat="36.7783258" lon="-119.7036792"/>
  <node id="10676897345" lat="36.7783242" lon="-119.7036615"/>
  <node id="10676897346" lat="36.7783267" lon="-119.7036394"/>
  <node id="10676897347" lat="36.7783340" lon="-119.7036203"/>
  <node id="10676897348" lat="36.7783411" lon="-119.7036025"/>
  <node id="10676897349" lat="36.7783431" lon="-119.7035868"/>
  <node id="10676897350" lat="36.7783407" lon="-119.7035708"/>
  <node id="10676897351" lat="36.7783317" lon="-119.7035598"/>
  <node id="10676897352" lat="36.7783187" lon="-119.7035558"/>
  <node id="10676897353" lat="36.7783030" lon="-119.7035570"/>
  <node id="10676897354" lat="36.7782945" lon="-119.7035629"/>
  <node id="10676897355" lat="36.7782841" lon="-119.7035863"/>
  <node id="10676897356" lat="36.7782801" lon="-119.7036185"/>
  <node id="10676897357" lat="36.7782772" lon="-119.7036571"/>
  <node id="10676897358" lat="36.7782782" lon="-119.7036889"/>
  <node id="10676897359" lat="36.7782813" lon="-119.7037133"/>
  <node id="10676897360" lat="36.7782870" lon="-119.7037331"/>
  <node id="10676897361" lat="36.7782947" lon="-119.7037420"/>
  <node id="10676897362" lat="36.7781449" lon="-119.7029900"/>
  <node id="10676897363" lat="36.7781548" lon="-119.7029943"/>
  <node id="10676897364" lat="36.7781680" lon="-119.7029900"/>
  <node id="10676897365" lat="36.7781787" lon="-119.7029784"/>
  <node id="10676897366" lat="36.7781822" lon="-119.7029601"/>
  <node id="10676897367" lat="36.7781793" lon="-119.7029500"/>
  <node id="10676897368" lat="36.7781691" lon="-119.7029417"/>
  <node id="10676897369" lat="36.7781538" lon="-119.7029393"/>
  <node id="10676897370" lat="36.7781411" lon="-119.7029310"/>
  <node id="10676897371" lat="36.7781315" lon="-119.7029173"/>
  <node id="10676897372" lat="36.7781162" lon="-119.7028920"/>
  <node id="10676897373" lat="36.7781001" lon="-119.7028777"/>
  <node id="10676897374" lat="36.7780839" lon="-119.7028723"/>
  <node id="10676897375" lat="36.7780719" lon="-119.7028716"/>
  <node id="10676897376" lat="36.7780627" lon="-119.7028767"/>
  <node id="10676897377" lat="36.7780565" lon="-119.7028894"/>
  <node id="10676897378" lat="36.7780579" lon="-119.7029068"/>
  <node id="10676897379" lat="36.7780657" lon="-119.7029269"/>
  <node id="10676897380" lat="36.7780767" lon="-119.7029407"/>
  <node id="10676897381" lat="36.7780898" lon="-119.7029531"/>
  <node id="10676897382" lat="36.7780976" lon="-119.7029571"/>
  <node id="10676897383" lat="36.7781092" lon="-119.7029597"/>
  <node id="10676897384" lat="36.7781186" lon="-119.7029665"/>
  <node id="10676897385" lat="36.7781328" lon="-119.7029792"/>
  <node id="10676897387" lat="36.7755394" lon="-119.7052960"/>
  <node id="10676897388" lat="36.7755497" lon="-119.7052893"/>
  <node id="10676897389" lat="36.7755570" lon="-119.7052732"/>
  <node id="10676897390" lat="36.7755659" lon="-119.7052376"/>
  <node id="10676897391" lat="36.7755673" lon="-119.7052020"/>
  <node id="10676897392" lat="36.7755642" lon="-119.7051828"/>
  <node id="10676897393" lat="36.7755607" lon="-119.7051752"/>
  <node id="10676897394" lat="36.7755535" lon="-119.7051705"/>
  <node id="10676956482" lat="36.7756881" lon="-119.7073475"/>
  <node id="10676956483" lat="36.7756770" lon="-119.7073397"/>
  <node id="10676956484" lat="36.7756633" lon="-119.7073267"/>
  <node id="10676956485" lat="36.7756535" lon="-119.7073059"/>
  <node id="10676956486" lat="36.7756493" lon="-119.7072794"/>
  <node id="10676956487" lat="36.7756476" lon="-119.7072510"/>
  <node id="10676956488" lat="36.7756505" lon="-119.7072322"/>
  <node id="10676956489" lat="36.7756599" lon="-119.7072080"/>
  <node id="10676956490" lat="36.7756698" lon="-119.7071964"/>
  <node id="10676956491" lat="36.7756804" lon="-119.7071946"/>
  <node id="10676956492" lat="36.7756931" lon="-119.7072009"/>
  <node id="10676956493" lat="36.7757012" lon="-119.7072134"/>
  <node id="10676956494" lat="36.7757093" lon="-119.7072413"/>
  <node id="10676956495" lat="36.7757195" lon="-119.7072698"/>
  <node id="10676956496" lat="36.7757246" lon="-119.7073069"/>
  <node id="10676956497" lat="36.7757219" lon="-119.7073275"/>
  <node id="10676956498" lat="36.7757170" lon="-119.7073389"/>
  <node id="10676956499" lat="36.7757081" lon="-119.7073475"/>
  <node id="10676956500" lat="36.7756995" lon="-119.7073496"/>
  <node id="10676956501" lat="36.7757239" lon="-119.7072878"/>
  <node id="10676956502" lat="36.7757067" lon="-119.7072317"/>
  <node id="10676956503" lat="36.7757122" lon="-119.7072495"/>
  <node id="10676956504" lat="36.7759189" lon="-119.7073290"/>
  <node id="10676956505" lat="36.7759283" lon="-119.7073304"/>
  <node id="10676956506" lat="36.7759387" lon="-119.7073223"/>
  <node id="10676956507" lat="36.7759459" lon="-119.7072969"/>
  <node id="10676956508" lat="36.7759492" lon="-119.7072570"/>
  <node id="10676956509" lat="36.7759478" lon="-119.7072324"/>
  <node id="10676956510" lat="36.7759405" lon="-119.7072133"/>
  <node id="10676956511" lat="36.7759306" lon="-119.7072056"/>
  <node id="10676956512" lat="36.7759210" lon="-119.7072022"/>
  <node id="10676956513" lat="36.7759137" lon="-119.7072031"/>
  <node id="10676956514" lat="36.7759066" lon="-119.7072073"/>
  <node id="10676956515" lat="36.7759040" lon="-119.7072182"/>
  <node id="10676956516" lat="36.7758990" lon="-119.7072589"/>
  <node id="10676956517" lat="36.7758966" lon="-119.7072896"/>
  <node id="10676956518" lat="36.7759024" lon="-119.7073130"/>
  <node id="10676956519" lat="36.7759094" lon="-119.7073227"/>
  <node id="10676956520" lat="36.7759138" lon="-119.7073265"/>
  <node id="10676956521" lat="36.7758986" lon="-119.7073035"/>
  <node id="10677002669" lat="36.7780679" lon="-119.7027391"/>
  <node id="10677002670" lat="36.7781310" lon="-119.7027180"/>
  <node id="10677002671" lat="36.7781387" lon="-119.7027121"/>
  <node id="10677002672" lat="36.7781420" lon="-119.7026999"/>
  <node id="10677002673" lat="36.7781409" lon="-119.7026849"/>
  <node id="10677002674" lat="36.7781283" lon="-119.7026667"/>
  <node id="10677002675" lat="36.7781129" lon="-119.7026578"/>
  <node id="10677002676" lat="36.7780909" lon="-119.7026585"/>
  <node id="10677002677" lat="36.7780573" lon="-119.7026677"/>
  <node id="10677002678" lat="36.7780432" lon="-119.7026755"/>
  <node id="10677002679" lat="36.7780375" lon="-119.7026860"/>
  <node id="10677002680" lat="36.7780347" lon="-119.7027015"/>
  <node id="10677002681" lat="36.7780347" lon="-119.7027180"/>
  <node id="10677002682" lat="36.7780400" lon="-119.7027307"/>
  <node id="10677002683" lat="36.7780465" lon="-119.7027373"/>
  <node id="10677002684" lat="36.7780567" lon="-119.7027403"/>
  <node id="10677002685" lat="36.7786549" lon="-119.7029570"/>
  <node id="10677002686" lat="36.7786621" lon="-119.7029530"/>
  <node id="10677002687" lat="36.7786712" lon="-119.7029419"/>
  <node id="10677002688" lat="36.7786788" lon="-119.7029208"/>
  <node id="10677002689" lat="36.7786798" lon="-119.7028940"/>
  <node id="10677002690" lat="36.7786758" lon="-119.7028725"/>
  <node id="10677002691" lat="36.7786686" lon="-119.7028605"/>
  <node id="10677002692" lat="36.7786600" lon="-119.7028558"/>
  <node id="10677002693" lat="36.7786508" lon="-119.7028561"/>
  <node id="10677002694" lat="36.7786417" lon="-119.7028632"/>
  <node id="10677002695" lat="36.7786307" lon="-119.7028866"/>
  <node id="10677002696" lat="36.7786251" lon="-119.7029108"/>
  <node id="10677002697" lat="36.7786251" lon="-119.7029342"/>
  <node id="10677002698" lat="36.7786315" lon="-119.7029493"/>
  <node id="10677002699" lat="36.7786420" lon="-119.7029564"/>
  <node id="10677002700" lat="36.7786498" lon="-119.7029580"/>
  <node id="10677002701" lat="36.7786406" lon="-119.7027923"/>
  <node id="10677002702" lat="36.7786532" lon="-119.7027929"/>
  <node id="10677002703" lat="36.7786682" lon="-119.7027882"/>
  <node id="10677002704" lat="36.7786757" lon="-119.7027738"/>
  <node id="10677002705" lat="36.7786776" lon="-119.7027463"/>
  <node id="10677002706" lat="36.7786763" lon="-119.7027148"/>
  <node id="10677002707" lat="36.7786714" lon="-119.7026970"/>
  <node id="10677002708" lat="36.7786655" lon="-119.7026897"/>
  <node id="10677002709" lat="36.7786561" lon="-119.7026866"/>
  <node id="10677002710" lat="36.7786457" lon="-119.7026907"/>
  <node id="10677002711" lat="36.7786322" lon="-119.7027051"/>
  <node id="10677002712" lat="36.7786199" lon="-119.7027289"/>
  <node id="10677002713" lat="36.7786151" lon="-119.7027490"/>
  <node id="10677002714" lat="36.7786159" lon="-119.7027658"/>
  <node id="10677002715" lat="36.7786207" lon="-119.7027775"/>
  <node id="10677002716" lat="36.7786290" lon="-119.7027869"/>
  <node id="10677002717" lat="36.7784863" lon="-119.7028598"/>
  <node id="10677002718" lat="36.7784963" lon="-119.7028576"/>
  <node id="10677002719" lat="36.7785059" lon="-119.7028464"/>
  <node id="10677002720" lat="36.7785157" lon="-119.7028194"/>
  <node id="10677002721" lat="36.7785244" lon="-119.7027709"/>
  <node id="10677002722" lat="36.7785279" lon="-119.7027331"/>
  <node id="10677002723" lat="36.7785277" lon="-119.7027178"/>
  <node id="10677002724" lat="36.7785254" lon="-119.7026985"/>
  <node id="10677002725" lat="36.7785193" lon="-119.7026810"/>
  <node id="10677002726" lat="36.7785126" lon="-119.7026711"/>
  <node id="10677002727" lat="36.7785047" lon="-119.7026685"/>
  <node id="10677002728" lat="36.7784953" lon="-119.7026705"/>
  <node id="10677002729" lat="36.7784870" lon="-119.7026779"/>
  <node id="10677002730" lat="36.7784790" lon="-119.7026932"/>
  <node id="10677002731" lat="36.7784642" lon="-119.7027442"/>
  <node id="10677002732" lat="36.7784522" lon="-119.7027938"/>
  <node id="10677002733" lat="36.7784477" lon="-119.7028276"/>
  <node id="10677002734" lat="36.7784503" lon="-119.7028416"/>
  <node id="10677002735" lat="36.7784572" lon="-119.7028510"/>
  <node id="10677002736" lat="36.7784741" lon="-119.7028591"/>
  <node id="10677002759" lat="36.7764579" lon="-119.7037856"/>
  <node id="10677002760" lat="36.7764687" lon="-119.7037887"/>
  <node id="10677002761" lat="36.7764798" lon="-119.7037822"/>
  <node id="10677002762" lat="36.7764887" lon="-119.7037602"/>
  <node id="10677002763" lat="36.7764962" lon="-119.7037329"/>
  <node id="10677002764" lat="36.7765054" lon="-119.7037090"/>
  <node id="10677002765" lat="36.7765190" lon="-119.7036936"/>
  <node id="10677002766" lat="36.7765329" lon="-119.7036770"/>
  <node id="10677002767" lat="36.7765375" lon="-119.7036628"/>
  <node id="10677002768" lat="36.7765344" lon="-119.7036478"/>
  <node id="10677002769" lat="36.7765239" lon="-119.7036351"/>
  <node id="10677002770" lat="36.7765060" lon="-119.7036339"/>
  <node id="10677002771" lat="36.7764795" lon="-119.7036420"/>
  <node id="10677002772" lat="36.7764607" lon="-119.7036562"/>
  <node id="10677002773" lat="36.7764468" lon="-119.7036786"/>
  <node id="10677002774" lat="36.7764329" lon="-119.7037067"/>
  <node id="10677002775" lat="36.7764255" lon="-119.7037344"/>
  <node id="10677002776" lat="36.7764267" lon="-119.7037521"/>
  <node id="10677002777" lat="36.7764354" lon="-119.7037687"/>
  <node id="10677002778" lat="36.7764486" lon="-119.7037806"/>
  <node id="10677002779" lat="36.7764752" lon="-119.7037865"/>
  <node id="10677002780" lat="36.7763310" lon="-119.7035488"/>
  <node id="10677002781" lat="36.7763527" lon="-119.7035491"/>
  <node id="10677002782" lat="36.7763691" lon="-119.7035494"/>
  <node id="10677002783" lat="36.7763789" lon="-119.7035511"/>
  <node id="10677002784" lat="36.7763904" lon="-119.7035488"/>
  <node id="10677002785" lat="36.7763999" lon="-119.7035348"/>
  <node id="10677002786" lat="36.7764020" lon="-119.7035219"/>
  <node id="10677002787" lat="36.7764009" lon="-119.7035085"/>
  <node id="10677002788" lat="36.7763939" lon="-119.7034933"/>
  <node id="10677002789" lat="36.7763833" lon="-119.7034796"/>
  <node id="10677002790" lat="36.7763700" lon="-119.7034746"/>
  <node id="10677002791" lat="36.7763443" lon="-119.7034808"/>
  <node id="10677002792" lat="36.7763256" lon="-119.7034886"/>
  <node id="10677002793" lat="36.7763165" lon="-119.7034983"/>
  <node id="10677002794" lat="36.7763097" lon="-119.7035120"/>
  <node id="10677002795" lat="36.7763085" lon="-119.7035298"/>
  <node id="10677002796" lat="36.7763148" lon="-119.7035421"/>
  <node id="10677002797" lat="36.7763223" lon="-119.7035464"/>
  <node id="10677002798" lat="36.7763774" lon="-119.7034759"/>
  <node id="10677002985" lat="36.7760553" lon="-119.7025811"/>
  <node id="10677002986" lat="36.7760666" lon="-119.7025846"/>
  <node id="10677002987" lat="36.7760830" lon="-119.7025860"/>
  <node id="10677002988" lat="36.7761044" lon="-119.7025749"/>
  <node id="10677002989" lat="36.7761305" lon="-119.7025406"/>
  <node id="10677002990" lat="36.7761477" lon="-119.7025129"/>
  <node id="10677002991" lat="36.7761530" lon="-119.7024973"/>
  <node id="10677002992" lat="36.7761523" lon="-119.7024750"/>
  <node id="10677002993" lat="36.7761471" lon="-119.7024619"/>
  <node id="10677002994" lat="36.7761294" lon="-119.7024498"/>
  <node id="10677002995" lat="36.7761105" lon="-119.7024463"/>
  <node id="10677002996" lat="36.7760936" lon="-119.7024509"/>
  <node id="10677002997" lat="36.7760800" lon="-119.7024619"/>
  <node id="10677002998" lat="36.7760730" lon="-119.7024748"/>
  <node id="10677002999" lat="36.7760655" lon="-119.7024990"/>
  <node id="10677003000" lat="36.7760536" lon="-119.7025305"/>
  <node id="10677003001" lat="36.7760461" lon="-119.7025489"/>
  <node id="10677003002" lat="36.7760436" lon="-119.7025614"/>
  <node id="10677003003" lat="36.7760478" lon="-119.7025763"/>
  <node id="10677003105" lat="36.7781353" lon="-119.7026745"/>
  <node id="10677040073" lat="36.7789381" lon="-119.7080002"/>
  <node id="10677040074" lat="36.7789479" lon="-119.7079982"/>
  <node id="10677040075" lat="36.7789580" lon="-119.7079821"/>
  <node id="10677040076" lat="36.7789580" lon="-119.7079663"/>
  <node id="10677040077" lat="36.7789573" lon="-119.7079380"/>
  <node id="10677040078" lat="36.7789592" lon="-119.7079180"/>
  <node id="10677040079" lat="36.7789655" lon="-119.7078981"/>
  <node id="10677040080" lat="36.7789723" lon="-119.7078729"/>
  <node id="10677040081" lat="36.7789704" lon="-119.7078425"/>
  <node id="10677040082" lat="36.7789627" lon="-119.7078251"/>
  <node id="10677040083" lat="36.7789465" lon="-119.7078087"/>
  <node id="10677040084" lat="36.7789274" lon="-119.7078041"/>
  <node id="10677040085" lat="36.7789066" lon="-119.7078052"/>
  <node id="10677040086" lat="36.7788885" lon="-119.7078157"/>
  <node id="10677040087" lat="36.7788766" lon="-119.7078356"/>
  <node id="10677040088" lat="36.7788708" lon="-119.7078575"/>
  <node id="10677040089" lat="36.7788731" lon="-119.7078840"/>
  <node id="10677040090" lat="36.7788811" lon="-119.7079042"/>
  <node id="10677040091" lat="36.7788914" lon="-119.7079217"/>
  <node id="10677040092" lat="36.7788974" lon="-119.7079412"/>
  <node id="10677040093" lat="36.7789009" lon="-119.7079678"/>
  <node id="10677040094" lat="36.7789094" lon="-119.7079862"/>
  <node id="10677040095" lat="36.7789260" lon="-119.7079982"/>
  <node id="10677040096" lat="36.7789540" lon="-119.7079920"/>
  <node id="10677040097" lat="36.7791223" lon="-119.7079866"/>
  <node id="10677040098" lat="36.7791177" lon="-119.7079858"/>
  <node id="10677040099" lat="36.7791102" lon="-119.7079787"/>
  <node id="10677040100" lat="36.7791008" lon="-119.7079627"/>
  <node id="10677040101" lat="36.7790911" lon="-119.7079450"/>
  <node id="10677040102" lat="36.7790841" lon="-119.7079375"/>
  <node id="10677040103" lat="36.7790735" lon="-119.7079310"/>
  <node id="10677040104" lat="36.7790636" lon="-119.7079194"/>
  <node id="10677040105" lat="36.7790556" lon="-119.7079028"/>
  <node id="10677040106" lat="36.7790551" lon="-119.7078807"/>
  <node id="10677040107" lat="36.7790605" lon="-119.7078612"/>
  <node id="10677040108" lat="36.7790693" lon="-119.7078478"/>
  <node id="10677040109" lat="36.7790800" lon="-119.7078391"/>
  <node id="10677040110" lat="36.7790895" lon="-119.7078389"/>
  <node id="10677040111" lat="36.7791034" lon="-119.7078474"/>
  <node id="10677040112" lat="36.7791110" lon="-119.7078599"/>
  <node id="10677040113" lat="36.7791164" lon="-119.7078830"/>
  <node id="10677040114" lat="36.7791235" lon="-119.7079009"/>
  <node id="10677040115" lat="36.7791360" lon="-119.7079246"/>
  <node id="10677040116" lat="36.7791444" lon="-119.7079412"/>
  <node id="10677040117" lat="36.7791483" lon="-119.7079598"/>
  <node id="10677040118" lat="36.7791433" lon="-119.7079726"/>
  <node id="10677040119" lat="36.7791343" lon="-119.7079812"/>
  <node id="10677040120" lat="36.7791481" lon="-119.7079508"/>
  <node id="10677040121" lat="36.7791143" lon="-119.7078707"/>
  <node id="10677040122" lat="36.7790965" lon="-119.7078416"/>
  <node id="10677040123" lat="36.7791137" lon="-119.7079829"/>
  <node id="10677040125" lat="36.7787312" lon="-119.7080513"/>
  <node id="10677040126" lat="36.7787354" lon="-119.7080408"/>
  <node id="10677040127" lat="36.7787354" lon="-119.7080183"/>
  <node id="10677040128" lat="36.7787340" lon="-119.7079955"/>
  <node id="10677040129" lat="36.7787354" lon="-119.7079742"/>
  <node id="10677040130" lat="36.7787396" lon="-119.7079582"/>
  <node id="10677040131" lat="36.7787474" lon="-119.7079444"/>
  <node id="10677040132" lat="36.7787569" lon="-119.7079252"/>
  <node id="10677040133" lat="36.7787621" lon="-119.7079033"/>
  <node id="10677040134" lat="36.7787595" lon="-119.7078811"/>
  <node id="10677040135" lat="36.7787530" lon="-119.7078697"/>
  <node id="10677040136" lat="36.7787443" lon="-119.7078665"/>
  <node id="10677040137" lat="36.7787333" lon="-119.7078656"/>
  <node id="10677040138" lat="36.7787219" lon="-119.7078703"/>
  <node id="10677040139" lat="36.7787104" lon="-119.7078799"/>
  <node id="10677040140" lat="36.7787039" lon="-119.7078928"/>
  <node id="10677040141" lat="36.7786997" lon="-119.7079135"/>
  <node id="10677040142" lat="36.7786962" lon="-119.7079348"/>
  <node id="10677040143" lat="36.7786913" lon="-119.7079544"/>
  <node id="10677040144" lat="36.7786873" lon="-119.7079733"/>
  <node id="10677040145" lat="36.7786842" lon="-119.7080034"/>
  <node id="10677040146" lat="36.7786849" lon="-119.7080337"/>
  <node id="10677040147" lat="36.7786892" lon="-119.7080478"/>
  <node id="10677306543" lat="36.7780591" lon="-119.7028818"/>
  <node id="10678605803" lat="36.7777598" lon="-119.7041074"/>
  <node id="10678605804" lat="36.7777732" lon="-119.7041066"/>
  <node id="10678622405" lat="36.7777873" lon="-119.7041005"/>
  <node id="10678622406" lat="36.7778003" lon="-119.7040817"/>
  <node id="10678622407" lat="36.7778080" lon="-119.7040599"/>
  <node id="10678622408" lat="36.7778141" lon="-119.7040395"/>
  <node id="10678622409" lat="36.7778278" lon="-119.7040266"/>
  <node id="10678622410" lat="36.7778418" lon="-119.7040113"/>
  <node id="10678622411" lat="36.7778550" lon="-119.7039923"/>
  <node id="10678622412" lat="36.7778613" lon="-119.7039752"/>
  <node id="10678622413" lat="36.7778624" lon="-119.7039572"/>
  <node id="10678622414" lat="36.7778569" lon="-119.7039409"/>
  <node id="10678622415" lat="36.7778465" lon="-119.7039303"/>
  <node id="10678622416" lat="36.7778341" lon="-119.7039298"/>
  <node id="10678622417" lat="36.7778188" lon="-119.7039422"/>
  <node id="10678622418" lat="36.7777946" lon="-119.7039831"/>
  <node id="10678622419" lat="36.7777742" lon="-119.7040184"/>
  <node id="10678622420" lat="36.7777565" lon="-119.7040515"/>
  <node id="10678622421" lat="36.7777500" lon="-119.7040672"/>
  <node id="10678622422" lat="36.7777476" lon="-119.7040868"/>
  <node id="10678622423" lat="36.7777514" lon="-119.7040980"/>
  <node id="10678622424" lat="36.7777553" lon="-119.7041041"/>
  <node id="10678622425" lat="36.7775960" lon="-119.7040109"/>
  <node id="10678622426" lat="36.7776038" lon="-119.7040122"/>
  <node id="10678622427" lat="36.7776127" lon="-119.7040096"/>
  <node id="10678622428" lat="36.7776182" lon="-119.7039996"/>
  <node id="10678622429" lat="36.7776212" lon="-119.7039877"/>
  <node id="10678622430" lat="36.7776203" lon="-119.7039704"/>
  <node id="10678622431" lat="36.7776175" lon="-119.7039523"/>
  <node id="10678622432" lat="36.7776161" lon="-119.7039302"/>
  <node id="10678622433" lat="36.7776169" lon="-119.7039047"/>
  <node id="10678622434" lat="36.7776152" lon="-119.7038842"/>
  <node id="10678622435" lat="36.7776090" lon="-119.7038742"/>
  <node id="10678622436" lat="36.7775936" lon="-119.7038729"/>
  <node id="10678622437" lat="36.7775812" lon="-119.7038784"/>
  <node id="10678622438" lat="36.7775755" lon="-119.7038979"/>
  <node id="10678622439" lat="36.7775725" lon="-119.7039127"/>
  <node id="10678622440" lat="36.7775657" lon="-119.7039260"/>
  <node id="10678622441" lat="36.7775611" lon="-119.7039419"/>
  <node id="10678622442" lat="36.7775670" lon="-119.7039580"/>
  <node id="10678622443" lat="36.7775769" lon="-119.7039749"/>
  <node id="10678622444" lat="36.7775826" lon="-119.7039952"/>
  <node id="10678622445" lat="36.7775891" lon="-119.7040049"/>
  <node id="12456267249" lat="36.7788493" lon="-119.7015414"/>
  <node id="12456267250" lat="36.7788359" lon="-119.7015431"/>
  <node id="12456267251" lat="36.7788152" lon="-119.7015438"/>
  <node id="12456267252" lat="36.7787857" lon="-119.7015435"/>
  <node id="12456267253" lat="36.7787556" lon="-119.7015388"/>
  <node id="12456267254" lat="36.7787397" lon="-119.7015327"/>
  <node id="12456267255" lat="36.7787252" lon="-119.7015230"/>
  <node id="12456267256" lat="36.7787156" lon="-119.7015106"/>
  <node id="12456267271" lat="36.7788665" lon="-119.7015089"/>
  <node id="12456267272" lat="36.7788649" lon="-119.7015240"/>
  <node id="12456267273" lat="36.7788549" lon="-119.7015357"/>
  <node id="12456267257" lat="36.7787105" lon="-119.7014979"/>
  <node id="12456267258" lat="36.7787129" lon="-119.7014868"/>
  <node id="12456267259" lat="36.7787188" lon="-119.7014744"/>
  <node id="12456267260" lat="36.7787298" lon="-119.7014626"/>
  <node id="12456267261" lat="36.7787411" lon="-119.7014526"/>
  <node id="12456267262" lat="36.7787540" lon="-119.7014476"/>
  <node id="12456267263" lat="36.7787682" lon="-119.7014533"/>
  <node id="12456267264" lat="36.7787795" lon="-119.7014576"/>
  <node id="12456267265" lat="36.7787886" lon="-119.7014694"/>
  <node id="12456267266" lat="36.7788053" lon="-119.7014844"/>
  <node id="12456267267" lat="36.7788190" lon="-119.7014925"/>
  <node id="12456267268" lat="36.7788340" lon="-119.7014925"/>
  <node id="12456267269" lat="36.7788480" lon="-119.7014922"/>
  <node id="12456267270" lat="36.7788606" lon="-119.7014968"/>

</osm>
