{
"type": "FeatureCollection",
"name": "multipolygons",
"crs": { "type": "name", "properties": { "name": "urn:ogc:def:crs:OGC:1.3:CRS84" } },
"features": [
{"type":"Feature","properties":{"osm_way_id":"1147439513","other_tags":"\"golf\"=>\"bunker\""},"geometry":{"type":"MultiPolygon","coordinates":[[[[-119.7071659,36.7783371],[-119.7071674,36.7783518],[-119.7071644,36.7783649],[-119.7071573,36.7783741],[-119.7071475,36.7783775],[-119.7071303,36.778376],[-119.7071158,36.7783696],[-119.7071063,36.7783594],[-119.7071028,36.778343],[-119.7071028,36.7783293],[-119.707109,36.7783181],[-119.7071179,36.7783115],[-119.707133,36.7783098],[-119.7071475,36.7783117],[-119.7071567,36.7783181],[-119.707162,36.7783272],[-119.7071659,36.7783371]]]]}},
{"type":"Feature","properties":{"osm_way_id":"1147439516","other_tags":"\"golf\"=>\"bunker\""},"geometry":{"type":"MultiPolygon","coordinates":[[[[-119.7072391,36.7776459],[-119.7072398,36.7776533],[-119.7072345,36.7776608],[-119.7072214,36.7776672],[-119.7072026,36.7776693],[-119.7071898,36.7776659],[-119.7071646,36.7776555],[-119.7071491,36.7776508],[-119.7071345,36.7776486],[-119.7071184,36.7776441],[-119.7071091,36.7776356],[-119.7071022,36.7776246],[-119.7070978,36.7776115],[-119.7070971,36.7776034],[-119.7071002,36.7775958],[-119.7071051,36.7775896],[-119.7071155,36.7775874],[-119.7071316,36.7775878],[-119.7071608,36.7775972],[-119.7072141,36.777623],[-119.7072341,36.7776363],[-119.7072391,36.7776459]]]]}},
{"type":"Feature","properties":{"osm_way_id":"1147439517","other_tags":"\"golf\"=>\"bunker\""},"geometry":{"type":"MultiPolygon","coordinates":[[[[-119.7106446,36.7776055],[-119.7106446,36.7776239],[-119.7106396,36.777637],[-119.7106324,36.7776447],[-119.7106259,36.7776466],[-119.7106195,36.7776471],[-119.7106093,36.7776454],[-119.7105979,36.7776405],[-119.7105836,36.7776277],[-119.7105678,36.7776057],[-119.7105598,36.7775881],[-119.7105556,36.7775739],[-119.7105568,36.7775568],[-119.7105605,36.7775454],[-119.7105693,36.7775388],[-119.7105851,36.7775362],[-119.7105982,36.7775373],[-119.7106081,36.7775423],[-119.7106172,36.7775524],[-119.7106283,36.7775709],[-119.7106391,36.7775921],[-119.7106446,36.7776055]]]]}},
{"type":"Feature","properties":{"osm_way_id":"1147439523","other_tags":"\"golf\"=>\"bunker\""},"geometry":{"type":"MultiPolygon","coordinates":[[[[-119.7036942,36.7781038],[-119.7036895,36.778118],[-119.7036801,36.7781268],[-119.703663,36.7781338],[-119.7036459,36.7781346],[-119.7036389,36.778132],[-119.7036268,36.7781244],[-119.703613,36.7781161],[-119.7035963,36.7781102],[-119.7035809,36.7781048],[-119.7035698,36.7780973],[-119.7035678,36.7780855],[-119.7035732,36.7780726],[-119.7035825,36.7780654],[-119.7035946,36.7780613],[-119.7036127,36.7780616],[-119.7036499,36.7780702],[-119.7036821,36.7780833],[-119.7036922,36.7780911],[-119.7036942,36.7781038]]]]}},
{"type":"Feature","properties":{"osm_way_id":"1147439524","other_tags":"\"golf\"=>\"bunker\""},"geometry":{"type":"MultiPolygon","coordinates":[[[[-119.7037473,36.7783028],[-119.7037451,36.7783128],[-119.7037392,36.7783216],[-119.7037306,36.7783267],[-119.7037174,36.7783303],[-119.7037042,36.7783319],[-119.7036927,36.7783295],[-119.7036792,36.7783258],[-119.7036615,36.7783242],[-119.7036394,36.7783267],[-119.7036203,36.778334],[-119.7036025,36.7783411],[-119.7035868,36.7783431],[-119.7035708,36.7783407],[-119.7035598,36.7783317],[-119.7035558,36.7783187],[-119.703557,36.778303],[-119.7035629,36.7782945],[-119.7035863,36.7782841],[-119.7036185,36.7782801],[-119.7036571,36.7782772],[-119.7036889,36.7782782],[-119.7037133,36.7782813],[-119.7037331,36.778287],[-119.703742,36.7782947],[-119.7037473,36.7783028]]]]}},
{"type":"Feature","properties":{"osm_way_id":"1147439525","other_tags":"\"golf\"=>\"bunker\""},"geometry":{"type":"MultiPolygon","coordinates":[[[[-119.70299,36.7781449],[-119.7029943,36.7781548],[-119.70299,36.778168],[-119.7029784,36.7781787],[-119.7029601,36.7781822],[-119.70295,36.7781793],[-119.7029417,36.7781691],[-119.7029393,36.7781538],[-119.702931,36.7781411],[-119.7029173,36.7781315],[-119.702892,36.7781162],[-119.7028777,36.7781001],[-119.7028723,36.7780839],[-119.7028716,36.7780719],[-119.7028767,36.7780627],[-119.7028818,36.7780591],[-119.7028894,36.7780565],[-119.7029068,36.7780579],[-119.7029269,36.7780657],[-119.7029407,36.7780767],[-119.7029531,36.7780898],[-119.7029571,36.7780976],[-119.7029597,36.7781092],[-119.7029665,36.7781186],[-119.7029792,36.7781328],[-119.70299,36.7781449]]]]}},
{"type":"Feature","properties":{"osm_way_id":"1147439526","other_tags":"\"golf\"=>\"bunker\""},"geometry":{"type":"MultiPolygon","coordinates":[[[[-119.7053024,36.7755062],[-119.705296,36.7755394],[-119.7052893,36.7755497],[-119.7052732,36.775557],[-119.7052376,36.7755659],[-119.705202,36.7755673],[-119.7051828,36.7755642],[-119.7051752,36.7755607],[-119.7051705,36.7755535],[-119.7051728,36.7755203],[-119.7051775,36.7755079],[-119.7051863,36.775496],[-119.705195,36.7754878],[-119.7052079,36.7754815],[-119.705223,36.7754787],[-119.7052388,36.7754749],[-119.7052543,36.7754695],[-119.7052656,36.7754649],[-119.7052759,36.7754638],[-119.7052858,36.7754658],[-119.7052975,36.7754733],[-119.7053027,36.7754922],[-119.7053024,36.7755062]]]]}},
{"type":"Feature","properties":{"osm_way_id":"1147439527","other_tags":"\"golf\"=>\"bunker\""},"geometry":{"type":"MultiPolygon","coordinates":[[[[-119.7052114,36.7752559],[-119.7052052,36.7752686],[-119.7051926,36.7752768],[-119.7051802,36.7752809],[-119.7051616,36.7752816],[-119.7051382,36.7752858],[-119.7051203,36.7752911],[-119.705103,36.7752931],[-119.7050922,36.7752892],[-119.7050849,36.77528],[-119.7050827,36.7752717],[-119.7050827,36.7752629],[-119.7050878,36.775255],[-119.7051106,36.775243],[-119.7051367,36.775235],[-119.7051696,36.7752279],[-119.7051897,36.7752275],[-119.7052041,36.775235],[-119.7052116,36.7752461],[-119.7052114,36.7752559]]]]}},
{"type":"Feature","properties":{"osm_way_id":"1147446840","other_tags":"\"golf\"=>\"bunker\""},"geometry":{"type":"MultiPolygon","coordinates":[[[[-119.709632,36.7764559],[-119.7096166,36.7764507],[-119.7096007,36.7764514],[-119.7095859,36.7764521],[-119.7095696,36.7764517],[-119.7095545,36.7764509],[-119.7095342,36.7764535],[-119.7095225,36.7764632],[-119.7095176,36.7764748],[-119.7095187,36.7764929],[-119.7095301,36.7765041],[-119.7095484,36.7765133],[-119.709572,36.7765157],[-119.7096061,36.7765129],[-119.7096297,36.7765066],[-119.7096396,36.7764999],[-119.7096457,36.7764889],[-119.7096468,36.7764815],[-119.709646,36.7764746],[-119.7096414,36.7764626],[-119.709632,36.7764559]]]]}},
{"type":"Feature","properties":{"osm_way_id":"1147446845","other_tags":"\"golf\"=>\"bunker\""},"geometry":{"type":"MultiPolygon","coordinates":[[[[-119.7073475,36.7756881],[-119.7073397,36.775677],[-119.7073267,36.7756633],[-119.7073059,36.7756535],[-119.7072794,36.7756493],[-119.707251,36.7756476],[-119.7072322,36.7756505],[-119.707208,36.7756599],[-119.7071964,36.7756698],[-119.7071946,36.7756804],[-119.7072009,36.7756931],[-119.7072134,36.7757012],[-119.7072317,36.7757067],[-119.7072413,36.7757093],[-119.7072495,36.7757122],[-119.7072698,36.7757195],[-119.7072878,36.7757239],[-119.7073069,36.7757246],[-119.7073275,36.7757219],[-119.7073389,36.775717],[-119.7073475,36.7757081],[-119.7073496,36.7756995],[-119.7073475,36.7756881]]]]}},
{"type":"Feature","properties":{"osm_way_id":"1147446846","other_tags":"\"golf\"=>\"bunker\""},"geometry":{"type":"MultiPolygon","coordinates":[[[[-119.707329,36.7759189],[-119.7073304,36.7759283],[-119.7073223,36.7759387],[-119.7072969,36.7759459],[-119.707257,36.7759492],[-119.7072324,36.7759478],[-119.7072133,36.7759405],[-119.7072056,36.7759306],[-119.7072022,36.775921],[-119.7072031,36.7759137],[-119.7072073,36.7759066],[-119.7072182,36.775904],[-119.7072589,36.775899],[-119.7072896,36.7758966],[-119.7073035,36.7758986],[-119.707313,36.7759024],[-119.7073227,36.7759094],[-119.7073265,36.7759138],[-119.707329,36.7759189]]]]}},
{"type":"Feature","properties":{"osm_way_id":"1147446851","other_tags":"\"golf\"=>\"bunker\""},"geometry":{"type":"MultiPolygon","coordinates":[[[[-119.7078485,36.7748834],[-119.7078465,36.7748958],[-119.7078375,36.774904],[-119.7078237,36.7749104],[-119.7078043,36.7749143],[-119.7077755,36.7749159],[-119.7077438,36.7749134],[-119.707723,36.7749084],[-119.7077067,36.7749014],[-119.7076946,36.7748943],[-119.7076911,36.7748896],[-119.7076905,36.774883],[-119.7076921,36.7748755],[-119.7076982,36.7748664],[-119.7077072,36.7748599],[-119.7077248,36.7748545],[-119.70775,36.7748539],[-119.7077811,36.7748567],[-119.7078122,36.7748572],[-119.7078271,36.7748591],[-119.7078396,36.774865],[-119.7078452,36.7748733],[-119.7078485,36.7748834]]]]}},
{"type":"Feature","properties":{"osm_way_id":"1147446852","other_tags":"\"golf\"=>\"bunker\""},"geometry":{"type":"MultiPolygon","coordinates":[[[[-119.7078184,36.7746436],[-119.7078208,36.7746491],[-119.7078221,36.7746579],[-119.7078203,36.774666],[-119.7078107,36.7746737],[-119.7077975,36.7746767],[-119.7077782,36.7746789],[-119.7077542,36.774684],[-119.7077422,36.7746879],[-119.7077241,36.7746879],[-119.7077086,36.7746839],[-119.7076999,36.7746784],[-119.7076965,36.7746726],[-119.7076964,36.7746658],[-119.7076993,36.7746593],[-119.7077149,36.774635],[-119.7077228,36.7746247],[-119.7077289,36.7746191],[-119.7077444,36.7746142],[-119.7077549,36.774613],[-119.7077654,36.7746137],[-119.70778,36.7746195],[-119.7077918,36.7746269],[-119.7078042,36.7746338],[-119.7078184,36.7746436]]]]}},
{"type":"Feature","properties":{"osm_way_id":"1147446857","other_tags":"\"golf\"=>\"bunker\""},"geometry":{"type":"MultiPolygon","coordinates":[[[[-119.7109281,36.7764095],[-119.7109306,36.7764236],[-119.7109292,36.7764514],[-119.7109239,36.7764692],[-119.7109155,36.7764769],[-119.7109044,36.7764818],[-119.71089,36.776483],[-119.7108793,36.7764804],[-119.7108741,36.7764748],[-119.7108729,36.7764634],[-119.7108714,36.7764332],[-119.7108696,36.7764236],[-119.7108676,36.7764098],[-119.7108681,36.7764005],[-119.7108702,36.776394],[-119.7108793,36.7763878],[-119.7108919,36.7763848],[-119.7109068,36.7763863],[-119.7109225,36.7763976],[-119.7109281,36.7764095]]]]}},
{"type":"Feature","properties":{"osm_way_id":"1147446858","other_tags":"\"golf\"=>\"bunker\""},"geometry":{"type":"MultiPolygon","coordinates":[[[[-119.710702,36.7765455],[-119.710705,36.7765532],[-119.710703,36.7765644],[-119.7106949,36.7765752],[-119.7106839,36.7765803],[-119.7106657,36.7765796],[-119.7106486,36.7765715],[-119.7106336,36.7765526],[-119.7106164,36.7765131],[-119.7106064,36.7764927],[-119.7106062,36.7764842],[-119.7106125,36.7764754],[-119.7106237,36.7764691],[-119.7106372,36.7764659],[-119.7106499,36.7764671],[-119.710658,36.776473],[-119.7106702,36.7764927],[-119.7106817,36.7765172],[-119.7106918,36.776533],[-119.710702,36.7765455]]]]}},
{"type":"Feature","properties":{"osm_way_id":"1147446863","other_tags":"\"golf\"=>\"bunker\""},"geometry":{"type":"MultiPolygon","coordinates":[[[[-119.7104377,36.777711],[-119.7104397,36.7777196],[-119.7104387,36.7777287],[-119.7104356,36.777738],[-119.7104322,36.7777419],[-119.7104244,36.7777451],[-119.7104175,36.7777453],[-119.7104034,36.7777432],[-119.7103781,36.7777325],[-119.7103528,36.7777175],[-119.7103285,36.7776948],[-119.7103203,36.7776792],[-119.7103215,36.7776613],[-119.7103272,36.7776485],[-119.7103323,36.7776426],[-119.7103396,36.7776398],[-119.7103616,36.7776379],[-119.710378,36.7776428],[-119.7103899,36.7776532],[-119.7104007,36.7776692],[-119.7104139,36.7776861],[-119.7104304,36.7776997],[-119.7104377,36.777711]]]]}},
{"type":"Feature","properties":{"osm_way_id":"1147452572","other_tags":"\"golf\"=>\"bunker\""},"geometry":{"type":"MultiPolygon","coordinates":[[[[-119.7027391,36.7780679],[-119.702718,36.778131],[-119.7027121,36.7781387],[-119.7026999,36.778142],[-119.7026849,36.7781409],[-119.7026745,36.7781353],[-119.7026667,36.7781283],[-119.7026578,36.7781129],[-119.7026585,36.7780909],[-119.7026677,36.7780573],[-119.7026755,36.7780432],[-119.702686,36.7780375],[-119.7027015,36.7780347],[-119.702718,36.7780347],[-119.7027307,36.77804],[-119.7027373,36.7780465],[-119.7027403,36.7780567],[-119.7027391,36.7780679]]]]}},
{"type":"Feature","properties":{"osm_way_id":"1147452573","other_tags":"\"golf\"=>\"bunker\""},"geometry":{"type":"MultiPolygon","coordinates":[[[[-119.702957,36.7786549],[-119.702953,36.7786621],[-119.7029419,36.7786712],[-119.7029208,36.7786788],[-119.702894,36.7786798],[-119.7028725,36.7786758],[-119.7028605,36.7786686],[-119.7028558,36.77866],[-119.7028561,36.7786508],[-119.7028632,36.7786417],[-119.7028866,36.7786307],[-119.7029108,36.7786251],[-119.7029342,36.7786251],[-119.7029493,36.7786315],[-119.7029564,36.778642],[-119.702958,36.7786498],[-119.702957,36.7786549]]]]}},
{"type":"Feature","properties":{"osm_way_id":"1147452574","other_tags":"\"golf\"=>\"bunker\""},"geometry":{"type":"MultiPolygon","coordinates":[[[[-119.7027923,36.7786406],[-119.7027929,36.7786532],[-119.7027882,36.7786682],[-119.7027738,36.7786757],[-119.7027463,36.7786776],[-119.7027148,36.7786763],[-119.702697,36.7786714],[-119.7026897,36.7786655],[-119.7026866,36.7786561],[-119.7026907,36.7786457],[-119.7027051,36.7786322],[-119.7027289,36.7786199],[-119.702749,36.7786151],[-119.7027658,36.7786159],[-119.7027775,36.7786207],[-119.7027869,36.778629],[-119.7027923,36.7786406]]]]}},
{"type":"Feature","properties":{"osm_way_id":"1147452575","other_tags":"\"golf\"=>\"bunker\""},"geometry":{"type":"MultiPolygon","coordinates":[[[[-119.7028598,36.7784863],[-119.7028576,36.7784963],[-119.7028464,36.7785059],[-119.7028194,36.7785157],[-119.7027709,36.7785244],[-119.7027331,36.7785279],[-119.7027178,36.7785277],[-119.7026985,36.7785254],[-119.702681,36.7785193],[-119.7026711,36.7785126],[-119.7026685,36.7785047],[-119.7026705,36.7784953],[-119.7026779,36.778487],[-119.7026932,36.778479],[-119.7027442,36.7784642],[-119.7027938,36.7784522],[-119.7028276,36.7784477],[-119.7028416,36.7784503],[-119.702851,36.7784572],[-119.7028591,36.7784741],[-119.7028598,36.7784863]]]]}},
{"type":"Feature","properties":{"osm_way_id":"1147452577","other_tags":"\"golf\"=>\"bunker\""},"geometry":{"type":"MultiPolygon","coordinates":[[[[-119.7037856,36.7764579],[-119.7037887,36.7764687],[-119.7037865,36.7764752],[-119.7037822,36.7764798],[-119.7037602,36.7764887],[-119.7037329,36.7764962],[-119.703709,36.7765054],[-119.7036936,36.776519],[-119.703677,36.7765329],[-119.7036628,36.7765375],[-119.7036478,36.7765344],[-119.7036351,36.7765239],[-119.7036339,36.776506],[-119.703642,36.7764795],[-119.7036562,36.7764607],[-119.7036786,36.7764468],[-119.7037067,36.7764329],[-119.7037344,36.7764255],[-119.7037521,36.7764267],[-119.7037687,36.7764354],[-119.7037806,36.7764486],[-119.7037856,36.7764579]]]]}},
{"type":"Feature","properties":{"osm_way_id":"1147452578","other_tags":"\"golf\"=>\"bunker\""},"geometry":{"type":"MultiPolygon","coordinates":[[[[-119.7035488,36.776331],[-119.7035491,36.7763527],[-119.7035494,36.7763691],[-119.7035511,36.7763789],[-119.7035488,36.7763904],[-119.7035348,36.7763999],[-119.7035219,36.776402],[-119.7035085,36.7764009],[-119.7034933,36.7763939],[-119.7034796,36.7763833],[-119.7034759,36.7763774],[-119.7034746,36.77637],[-119.7034808,36.7763443],[-119.7034886,36.7763256],[-119.7034983,36.7763165],[-119.703512,36.7763097],[-119.7035298,36.7763085],[-119.7035421,36.7763148],[-119.7035464,36.7763223],[-119.7035488,36.776331]]]]}},
{"type":"Feature","properties":{"osm_way_id":"1147452586","other_tags":"\"golf\"=>\"bunker\""},"geometry":{"type":"MultiPolygon","coordinates":[[[[-119.7025811,36.7760553],[-119.7025846,36.7760666],[-119.702586,36.776083],[-119.7025749,36.7761044],[-119.7025406,36.7761305],[-119.7025129,36.7761477],[-119.7024973,36.776153],[-119.702475,36.7761523],[-119.7024619,36.7761471],[-119.7024498,36.7761294],[-119.7024463,36.7761105],[-119.7024509,36.7760936],[-119.7024619,36.77608],[-119.7024748,36.776073],[-119.702499,36.7760655],[-119.7025305,36.7760536],[-119.7025489,36.7760461],[-119.7025614,36.7760436],[-119.7025763,36.7760478],[-119.7025811,36.7760553]]]]}},
{"type":"Feature","properties":{"osm_way_id":"1147457401","other_tags":"\"golf\"=>\"bunker\""},"geometry":{"type":"MultiPolygon","coordinates":[[[[-119.7080002,36.7789381],[-119.7079982,36.7789479],[-119.707992,36.778954],[-119.7079821,36.778958],[-119.7079663,36.778958],[-119.707938,36.7789573],[-119.707918,36.7789592],[-119.7078981,36.7789655],[-119.7078729,36.7789723],[-119.7078425,36.7789704],[-119.7078251,36.7789627],[-119.7078087,36.7789465],[-119.7078041,36.7789274],[-119.7078052,36.7789066],[-119.7078157,36.7788885],[-119.7078356,36.7788766],[-119.7078575,36.7788708],[-119.707884,36.7788731],[-119.7079042,36.7788811],[-119.7079217,36.7788914],[-119.7079412,36.7788974],[-119.7079678,36.7789009],[-119.7079862,36.7789094],[-119.7079982,36.778926],[-119.7080002,36.7789381]]]]}},
{"type":"Feature","properties":{"osm_way_id":"1147457402","other_tags":"\"golf\"=>\"bunker\""},"geometry":{"type":"MultiPolygon","coordinates":[[[[-119.7079866,36.7791223],[-119.7079858,36.7791177],[-119.7079829,36.7791137],[-119.7079787,36.7791102],[-119.7079627,36.7791008],[-119.707945,36.7790911],[-119.7079375,36.7790841],[-119.707931,36.7790735],[-119.7079194,36.7790636],[-119.7079028,36.7790556],[-119.7078807,36.7790551],[-119.7078612,36.7790605],[-119.7078478,36.7790693],[-119.7078391,36.77908],[-119.7078389,36.7790895],[-119.7078416,36.7790965],[-119.7078474,36.7791034],[-119.7078599,36.779111],[-119.7078707,36.7791143],[-119.707883,36.7791164],[-119.7079009,36.7791235],[-119.7079246,36.779136],[-119.7079412,36.7791444],[-119.7079508,36.7791481],[-119.7079598,36.7791483],[-119.7079726,36.7791433],[-119.7079812,36.7791343],[-119.7079866,36.7791223]]]]}},
{"type":"Feature","properties":{"osm_way_id":"1147457403","other_tags":"\"golf\"=>\"bunker\""},"geometry":{"type":"MultiPolygon","coordinates":[[[[-119.7080583,36.7787235],[-119.7080513,36.7787312],[-119.7080408,36.7787354],[-119.7080183,36.7787354],[-119.7079955,36.778734],[-119.7079742,36.7787354],[-119.7079582,36.7787396],[-119.7079444,36.7787474],[-119.7079252,36.7787569],[-119.7079033,36.7787621],[-119.7078811,36.7787595],[-119.7078697,36.778753],[-119.7078665,36.7787443],[-119.7078656,36.7787333],[-119.7078703,36.7787219],[-119.7078799,36.7787104],[-119.7078928,36.7787039],[-119.7079135,36.7786997],[-119.7079348,36.7786962],[-119.7079544,36.7786913],[-119.7079733,36.7786873],[-119.7080034,36.7786842],[-119.7080337,36.7786849],[-119.7080478,36.7786892],[-119.7080583,36.7786964],[-119.7080615,36.7787086],[-119.7080609,36.778716],[-119.7080583,36.7787235]]]]}},
{"type":"Feature","properties":{"osm_way_id":"1147457404","other_tags":"\"golf\"=>\"bunker\""},"geometry":{"type":"MultiPolygon","coordinates":[[[[-119.7109007,36.779046],[-119.7109023,36.7790563],[-119.7108981,36.7790667],[-119.7108879,36.7790734],[-119.710876,36.7790776],[-119.7108613,36.7790775],[-119.7108297,36.7790763],[-119.7107961,36.7790775],[-119.7107751,36.779075],[-119.7107653,36.7790691],[-119.7107569,36.7790603],[-119.7107547,36.7790499],[-119.7107574,36.7790414],[-119.7107689,36.7790353],[-119.7107792,36.7790344],[-119.7107945,36.779035],[-119.7108125,36.7790382],[-119.710829,36.7790392],[-119.7108662,36.7790396],[-119.7108903,36.77904],[-119.7108971,36.7790417],[-119.7109007,36.779046]]]]}},
{"type":"Feature","properties":{"osm_way_id":"1147457405","other_tags":"\"golf\"=>\"bunker\""},"geometry":{"type":"MultiPolygon","coordinates":[[[[-119.7108641,36.7787853],[-119.7108671,36.7787941],[-119.7108665,36.7788016],[-119.710861,36.7788105],[-119.7108522,36.7788188],[-119.7108199,36.7788335],[-119.7107971,36.7788401],[-119.710782,36.7788414],[-119.710762,36.7788385],[-119.7107508,36.7788331],[-119.7107432,36.7788252],[-119.7107409,36.7788162],[-119.7107427,36.7788063],[-119.7107482,36.7788014],[-119.7107546,36.7787978],[-119.7107759,36.7787918],[-119.7107961,36.7787855],[-119.7108147,36.7787753],[-119.7108239,36.7787708],[-119.7108303,36.7787692],[-119.7108373,36.7787692],[-119.7108509,36.778772],[-119.7108594,36.7787789],[-119.7108641,36.7787853]]]]}},
{"type":"Feature","properties":{"osm_way_id":"1147652584","other_tags":"\"golf\"=>\"bunker\""},"geometry":{"type":"MultiPolygon","coordinates":[[[[-119.7041074,36.7777598],[-119.7041066,36.7777732],[-119.7041005,36.7777873],[-119.7040817,36.7778003],[-119.7040599,36.777808],[-119.7040395,36.7778141],[-119.7040266,36.7778278],[-119.7040113,36.7778418],[-119.7039923,36.777855],[-119.7039752,36.7778613],[-119.7039572,36.7778624],[-119.7039409,36.7778569],[-119.7039303,36.7778465],[-119.7039298,36.7778341],[-119.7039422,36.7778188],[-119.7039831,36.7777946],[-119.7040184,36.7777742],[-119.7040515,36.7777565],[-119.7040672,36.77775],[-119.7040868,36.7777476],[-119.704098,36.7777514],[-119.7041041,36.7777553],[-119.7041074,36.7777598]]]]}},
{"type":"Feature","properties":{"osm_way_id":"1147652585","other_tags":"\"golf\"=>\"bunker\""},"geometry":{"type":"MultiPolygon","coordinates":[[[[-119.7040109,36.777596],[-119.7040122,36.7776038],[-119.7040096,36.7776127],[-119.7039996,36.7776182],[-119.7039877,36.7776212],[-119.7039704,36.7776203],[-119.7039523,36.7776175],[-119.7039302,36.7776161],[-119.7039047,36.7776169],[-119.7038842,36.7776152],[-119.7038742,36.777609],[-119.7038729,36.7775936],[-119.7038784,36.7775812],[-119.7038979,36.7775755],[-119.7039127,36.7775725],[-119.703926,36.7775657],[-119.7039419,36.7775611],[-119.703958,36.777567],[-119.7039749,36.7775769],[-119.7039952,36.7775826],[-119.7040049,36.7775891],[-119.7040109,36.777596]]]]}},
{"type":"Feature","properties":{"osm_way_id":"1346670010","natural":"sand","other_tags":"\"golf\"=>\"bunker\""},"geometry":{"type":"MultiPolygon","coordinates":[[[[-119.7015357,36.7788549],[-119.701524,36.7788649],[-119.7015089,36.7788665],[-119.7014968,36.7788606],[-119.7014922,36.778848],[-119.7014925,36.778834],[-119.7014925,36.778819],[-119.7014844,36.7788053],[-119.7014694,36.7787886],[-119.7014576,36.7787795],[-119.7014533,36.7787682],[-119.7014476,36.778754],[-119.7014526,36.7787411],[-119.7014626,36.7787298],[-119.7014744,36.7787188],[-119.7014868,36.7787129],[-119.7014979,36.7787105],[-119.7015106,36.7787156],[-119.701523,36.7787252],[-119.7015327,36.7787397],[-119.7015388,36.7787556],[-119.7015435,36.7787857],[-119.7015438,36.7788152],[-119.7015431,36.7788359],[-119.7015414,36.7788493],[-119.7015357,36.7788549]]]]}}
]
}
