{
"type": "FeatureCollection",
"name": "multipolygons",
"crs": { "type": "name", "properties": { "name": "urn:ogc:def:crs:OGC:1.3:CRS84" } },
"features": [
{ "type": "Feature", "properties": { "osm_way_id": "42013666", "name": "Airways Golf Course", "leisure": "golf_course", "other_tags": "\"addr:city\"=>\"Fresno\",\"addr:housenumber\"=>\"5440\",\"addr:postcode\"=>\"93727\",\"addr:state\"=>\"CA\",\"addr:street\"=>\"E Airways Blvd\",\"operator\"=>\"Sierra Golf Management\",\"Park_No\"=>\"34\",\"Parks_ID\"=>\"6658\",\"perimeter\"=>\"9685.70478\",\"website\"=>\"https://airways.golf/\"" }, "geometry": { "type": "MultiPolygon", "coordinates": [ [ [ [ -119.7010159, 36.7792887 ], [ -119.7010938, 36.7784189 ], [ -119.7012496, 36.7768119 ], [ -119.7017512, 36.7757548 ], [ -119.7041316, 36.7757541 ], [ -119.704521, 36.7755824 ], [ -119.7047969, 36.7753773 ], [ -119.7050875, 36.7750225 ], [ -119.706273, 36.7756178 ], [ -119.706443, 36.7756711 ], [ -119.7066016, 36.7756076 ], [ -119.7076065, 36.7745231 ], [ -119.7079407, 36.7745459 ], [ -119.709024, 36.774975 ], [ -119.7094054, 36.7750989 ], [ -119.7108406, 36.7758837 ], [ -119.7113617, 36.7764994 ], [ -119.7103874, 36.7768795 ], [ -119.710352, 36.7769164 ], [ -119.710352, 36.7769674 ], [ -119.7106741, 36.7774975 ], [ -119.7108565, 36.7779333 ], [ -119.710791, 36.7779816 ], [ -119.7107596, 36.7780403 ], [ -119.7107648, 36.7781074 ], [ -119.7108225, 36.7781599 ], [ -119.710901, 36.778183 ], [ -119.7109299, 36.7782123 ], [ -119.7110325, 36.7787704 ], [ -119.7110049, 36.7793842 ], [ -119.7106073, 36.7799504 ], [ -119.7101627, 36.7796827 ], [ -119.7097561, 36.7795048 ], [ -119.7094451, 36.7794175 ], [ -119.7090731, 36.7793465 ], [ -119.7088297, 36.7793343 ], [ -119.7085335, 36.7793286 ], [ -119.7010159, 36.7792887 ] ] ] ] } }
]
}
